Zipcode,City,County,State,Country,Timezone
32405-7085,Panama City,Bay,FL,US,US/Central
32505-5520,Pensacola,Escambia,FL,US,US/Central
32536-7239,Crestview,Okaloosa,FL,US,US/Central
32539-7125,Crestview,Okaloosa,FL,US,US/Central
32583-9460,Milton,Santa Rosa,FL,US,US/Central
35004,Moody,St. Clair,AL,US,US/Central
35051-3761,Columbiana,Shelby,AL,US,US/Central
35080-3637,Helena,Shelby,AL,US,US/Central
35080-7516,Helena,Shelby,AL,US,US/Central
35094-3789,Leeds,Jefferson,AL,US,US/Central
35207-3179,Birmingham,Jefferson,AL,US,US/Central
35401-2217,Tuscaloosa,Tuscaloosa,AL,US,US/Central
35444,Brookwood,Tuscaloosa,AL,US,US/Central
35640,Hartselle,Morgan,AL,US,US/Central
35670,Somerville,Morgan,AL,US,US/Central
35816-1001,Huntsville,Madison,AL,US,US/Central
36067,Prattville,Autauga,AL,US,US/Central
36083-5815,Tuskegee,Macon,AL,US,US/Central
36526,Daphne,Baldwin,AL,US,US/Central
36541-5111,Grand Bay,Mobile,AL,US,US/Central
36544-2405,Irvington,Mobile,AL,US,US/Central
36606-1412,Mobile,Mobile,AL,US,US/Central
37013-3647,Antioch,Davidson,TN,US,US/Central
37013-4146,Antioch,Davidson,TN,US,US/Central
37013-5618,Antioch,Davidson,TN,US,US/Central
37027-8812,Brentwood,Williamson,TN,US,US/Central
37064-2019,Franklin,Williamson,TN,US,US/Central
37135-8511,Nolensville,Davidson,TN,US,US/Central
37203-2446,Nashville,Davidson,TN,US,US/Central
37205-2327,Nashville,Davidson,TN,US,US/Central
37206-3545,Nashville,Davidson,TN,US,US/Central
37207-4413,Nashville,Davidson,TN,US,US/Central
37207-5040,Nashville,Davidson,TN,US,US/Central
37208-1005,Nashville,Davidson,TN,US,US/Central
37208-1057,Nashville,Davidson,TN,US,US/Central
37208-1907,Nashville,Davidson,TN,US,US/Central
37208-2632,Nashville,Davidson,TN,US,US/Central
37209-3354,Nashville,Davidson,TN,US,US/Central
37210-3707,Nashville,Davidson,TN,US,US/Central
37211-4613,Nashville,Davidson,TN,US,US/Central
37212-2205,Nashville,Davidson,TN,US,US/Central
37216-3104,Nashville,Davidson,TN,US,US/Central
37217-1002,Nashville,Davidson,TN,US,US/Central
37217-3018,Nashville,Davidson,TN,US,US/Central
37218-3805,Nashville,Davidson,TN,US,US/Central
37218-4203,Nashville,Davidson,TN,US,US/Central
38053-5629,Millington,Shelby,TN,US,US/Central
38105-4603,Memphis,Shelby,TN,US,US/Central
38112-1712,Memphis,Shelby,TN,US,US/Central
38120-2801,Memphis,Shelby,TN,US,US/Central
38122-5108,Memphis,Shelby,TN,US,US/Central
38128-6317,Memphis,Shelby,TN,US,US/Central
38341-4067,Holladay,Benton,TN,US,US/Central
38611-9345,Byhalia,Marshall,MS,US,US/Central
38672,Southaven,DeSoto,MS,US,US/Central
39073-9411,Florence,Rankin,MS,US,US/Central
39581,Pascagoula,Jackson,MS,US,US/Central
46534,Knox,Starke,IN,US,US/Central
47847-8024,Dana,Vermillion,IN,US,US/Central
50315-7243,Des Moines,Polk,IA,US,US/Central
50659-9021,New Hampton,Chickasaw,IA,US,US/Central
51063,Whiting,Monona,IA,US,US/Central
51543-3002,Kimballton,Audubon,IA,US,US/Central
52240-7801,Iowa City,Johnson,IA,US,US/Central
52310-1060,Monticello,Jones,IA,US,US/Central
53122-2501,Elm Grove,Waukesha,WI,US,US/Central
53204-1329,Milwaukee,Milwaukee,WI,US,US/Central
53211-1811,Milwaukee,Milwaukee,WI,US,US/Central
53221-2938,Milwaukee,Milwaukee,WI,US,US/Central
53560-9409,Mazomanie,Dane,WI,US,US/Central
54107-8940,Bonduel,Shawano,WI,US,US/Central
54302-2735,Green Bay,Brown,WI,US,US/Central
54634-4266,Hillsboro,Vernon,WI,US,US/Central
54945-9519,Iola,Waupaca,WI,US,US/Central
54963-9416,Omro,Winnebago,WI,US,US/Central
55008-3504,Cambridge,Isanti,MN,US,US/Central
55073-9547,Scandia,Washington,MN,US,US/Central
55089,Welch,Goodhue,MN,US,US/Central
55371,Princeton,Isanti,MN,US,US/Central
55445,Minneapolis,Hennepin,MN,US,US/Central
56315,Brandon,Douglas,MN,US,US/Central
56527,Deer Creek,Otter Tail,MN,US,US/Central
56662,Outing,Cass,MN,US,US/Central
60010-1003,North Barrington,Lake,IL,US,US/Central
60010-2640,Barrington,Lake,IL,US,US/Central
60051-5109,Johnsburg,Mchenry,IL,US,US/Central
60051-7241,Mchenry,Mchenry,IL,US,US/Central
60053,Morton Grove,Cook,IL,US,US/Central
60060-2209,Mundelein,Lake,IL,US,US/Central
60068-2812,Park Ridge,Cook,IL,US,US/Central
60070,Prospect Heights,Cook,IL,US,US/Central
60081,Spring Grove,Lake,IL,US,US/Central
60120-4121,Elgin,Kane,IL,US,US/Central
60120-4655,Elgin,Kane,IL,US,US/Central
60120-6657,Elgin,Kane,IL,US,US/Central
60120-8338,Elgin,Kane,IL,US,US/Central
60131-1218,Franklin Park,Cook,IL,US,US/Central
60133-3252,Hanover Park,Cook,IL,US,US/Central
60137-4903,Glen Ellyn,Dupage,IL,US,US/Central
60137-5374,Glen Ellyn,DuPage,IL,US,US/Central
60148-2307,Lombard,Dupage,IL,US,US/Central
60160-2510,Melrose Park,Cook,IL,US,US/Central
60181-1964,Villa Park,Dupage,IL,US,US/Central
60181-3212,Villa Park,DuPage,IL,US,US/Central
60185-2708,West Chicago,DuPage,IL,US,US/Central
60187-5017,Wheaton,Dupage,IL,US,US/Central
60516-3420,Downers Grove,DuPage,IL,US,US/Central
60521-3227,Hinsdale,Dupage,IL,US,US/Central
60521-3755,Hinsdale,Dupage,IL,US,US/Central
60525-3069,La Grange,Cook,IL,US,US/Central
60527-1959,Willowbrook,DuPage,IL,US,US/Central
60527-4514,Burr Ridge,Cook,IL,US,US/Central
60561-5044,Darien,Dupage,IL,US,US/Central
60613-1323,Chicago,Cook,IL,US,US/Central
60629-4402,Chicago,Cook,IL,US,US/Central
60630-1407,Chicago,Cook,IL,US,US/Central
60631-2915,Chicago,Cook,IL,US,US/Central
60642-4012,Chicago,Cook,IL,US,US/Central
60642-5731,Chicago,Cook,IL,US,US/Central
60644-2901,Chicago,Cook,IL,US,US/Central
60647-3147,Chicago,Cook,IL,US,US/Central
60647-4105,Chicago,Cook,IL,US,US/Central
60651-1936,Chicago,Cook,IL,US,US/Central
60660-3445,Chicago,Cook,IL,US,US/Central
60804-1222,Cicero,Cook,IL,US,US/Central
61354,Peru,Bureau,IL,US,US/Central
62650-6486,Jacksonville,Morgan,IL,US,US/Central
62912,Buncombe,Union,IL,US,US/Central
63110-1247,Saint Louis,St. Louis City,MO,US,US/Central
66401,Alma,Wabaunsee,KS,US,US/Central
68005-5221,Bellevue,Sarpy,NE,US,US/Central
68008-2151,Blair,Washington,NE,US,US/Central
68105-4014,Omaha,Douglas,NE,US,US/Central
68106-4552,Omaha,Douglas,NE,US,US/Central
68111-3147,Omaha,Douglas,NE,US,US/Central
68111-3576,Omaha,Douglas,NE,US,US/Central
68111-3706,Omaha,Douglas,NE,US,US/Central
68114-1518,Omaha,Douglas,NE,US,US/Central
68114-3301,Omaha,Douglas,NE,US,US/Central
68130-2214,Omaha,Douglas,NE,US,US/Central
68132-1814,Omaha,Douglas,NE,US,US/Central
68135-3235,Omaha,Douglas,NE,US,US/Central
68137-3020,Omaha,Douglas,NE,US,US/Central
68776-2917,South Sioux City,Dakota,NE,US,US/Central
70435-0122,Covington,St. Tammany,LA,US,US/Central
70503-2132,Lafayette,Lafayette,LA,US,US/Central
70503-4306,Lafayette,Lafayette,LA,US,US/Central
70503-5495,Lafayette,Lafayette,LA,US,US/Central
70506-1601,Lafayette,Lafayette,LA,US,US/Central
70506-1817,Lafayette,Lafayette,LA,US,US/Central
70506-4313,Lafayette,Lafayette,LA,US,US/Central
70506-5905,Lafayette,Lafayette,LA,US,US/Central
70506-6801,Lafayette,Lafayette,LA,US,US/Central
70506-7041,Lafayette,Lafayette,LA,US,US/Central
70506-7222,Lafayette,Lafayette,LA,US,US/Central
70506-9354,Lafayette,Lafayette,LA,US,US/Central
70507-4038,Lafayette,Lafayette,LA,US,US/Central
70508-3339,Lafayette,Lafayette,LA,US,US/Central
70508-5329,Lafayette,Lafayette,LA,US,US/Central
70518-3514,Broussard,Lafayette,LA,US,US/Central
70518-5911,Broussard,Lafayette,LA,US,US/Central
70531,Egan,Acadia,LA,US,US/Central
70592-6018,Youngsville,Lafayette,LA,US,US/Central
70714-4406,Baker,East Baton Rouge,LA,US,US/Central
70802-3064,Baton Rouge,East Baton Rouge,LA,US,US/Central
70802-3500,Baton Rouge,East Baton Rouge,LA,US,US/Central
70802-4553,Baton Rouge,East Baton Rouge,LA,US,US/Central
70802-4795,Baton Rouge,East Baton Rouge,LA,US,US/Central
70802-5506,Baton Rouge,East Baton Rouge,LA,US,US/Central
70802-6035,Baton Rouge,East Baton Rouge,LA,US,US/Central
70802-6252,Baton Rouge,East Baton Rouge,LA,US,US/Central
70802-6776,Baton Rouge,East Baton Rouge,LA,US,US/Central
70802-8240,Baton Rouge,East Baton Rouge,LA,US,US/Central
70805-3632,Baton Rouge,East Baton Rouge,LA,US,US/Central
70805-4614,Baton Rouge,East Baton Rouge,LA,US,US/Central
70805-5865,Baton Rouge,East Baton Rouge,LA,US,US/Central
70805-6066,Baton Rouge,East Baton Rouge,LA,US,US/Central
70805-6907,Baton Rouge,East Baton Rouge,LA,US,US/Central
70805-8264,Baton Rouge,East Baton Rouge,LA,US,US/Central
70805-8329,Baton Rouge,East Baton Rouge,LA,US,US/Central
70806-3662,Baton Rouge,East Baton Rouge,LA,US,US/Central
70806-5410,Baton Rouge,East Baton Rouge,LA,US,US/Central
70806-8227,Baton Rouge,East Baton Rouge,LA,US,US/Central
70807-4921,Baton Rouge,East Baton Rouge,LA,US,US/Central
70808-1035,Baton Rouge,East Baton Rouge,LA,US,US/Central
70808-2198,Baton Rouge,East Baton Rouge,LA,US,US/Central
70808-6172,Baton Rouge,East Baton Rouge,LA,US,US/Central
70808-6737,Baton Rouge,East Baton Rouge,LA,US,US/Central
70809-2508,Baton Rouge,East Baton Rouge,LA,US,US/Central
70809-4145,Baton Rouge,East Baton Rouge,LA,US,US/Central
70810-1532,Baton Rouge,East Baton Rouge,LA,US,US/Central
70810-1625,Baton Rouge,East Baton Rouge,LA,US,US/Central
70810-6726,Baton Rouge,East Baton Rouge,LA,US,US/Central
70812-1057,Baton Rouge,East Baton Rouge,LA,US,US/Central
70817-1319,Baton Rouge,East Baton Rouge,LA,US,US/Central
70818-4608,Baton Rouge,East Baton Rouge,LA,US,US/Central
71047,Keithville,Caddo,LA,US,US/Central
71103-3429,Shreveport,Caddo,LA,US,US/Central
71105-2104,Shreveport,Caddo,LA,US,US/Central
71106-7428,Shreveport,Caddo,LA,US,US/Central
71119-4012,Shreveport,Caddo,LA,US,US/Central
72386-9487,Tyronza,Crittenden,AR,US,US/Central
72472,Trumann,Poinsett,AR,US,US/Central
73013-1874,Edmond,Oklahoma,OK,US,US/Central
73013-8929,Edmond,Oklahoma,OK,US,US/Central
73020-6620,Choctaw,Oklahoma,OK,US,US/Central
73099-5016,Yukon,Canadian,OK,US,US/Central
73099-6309,Yukon,Canadian,OK,US,US/Central
73099-6539,Yukon,Canadian,OK,US,US/Central
73099-6748,Yukon,Canadian,OK,US,US/Central
73107-5255,Oklahoma City,Oklahoma,OK,US,US/Central
73108-2232,Oklahoma City,Oklahoma,OK,US,US/Central
73112-3508,Oklahoma City,Oklahoma,OK,US,US/Central
73112-5613,Oklahoma City,Oklahoma,OK,US,US/Central
73114-2904,Oklahoma City,Oklahoma,OK,US,US/Central
73117-2809,Oklahoma City,Oklahoma,OK,US,US/Central
73117-5803,Oklahoma City,Oklahoma,OK,US,US/Central
73120-7755,Oklahoma City,Oklahoma,OK,US,US/Central
73127-1816,Oklahoma City,Oklahoma,OK,US,US/Central
73128-1030,Oklahoma City,Canadian,OK,US,US/Central
73129-5340,Oklahoma City,Oklahoma,OK,US,US/Central
73129-6014,Oklahoma City,Oklahoma,OK,US,US/Central
73129-8171,Oklahoma City,Oklahoma,OK,US,US/Central
73142-5004,Oklahoma City,Oklahoma,OK,US,US/Central
73149-2220,Oklahoma City,Oklahoma,OK,US,US/Central
73170-2601,Oklahoma City,Cleveland,OK,US,US/Central
74066-7923,Sapulpa,Creek,OK,US,US/Central
74104-2605,Tulsa,Tulsa,OK,US,US/Central
74115-2234,Tulsa,Tulsa,OK,US,US/Central
74119-3604,Tulsa,Tulsa,OK,US,US/Central
74127-8321,Tulsa,Tulsa,OK,US,US/Central
74137-7007,Tulsa,Tulsa,OK,US,US/Central
74137-8708,Tulsa,Tulsa,OK,US,US/Central
75007,Carrollton,Denton,TX,US,US/Central
75150-1149,Mesquite,Dallas,TX,US,US/Central
75154-7304,Red Oak,Ellis,TX,US,US/Central
75205-1634,Dallas,Dallas,TX,US,US/Central
75206-6929,Dallas,Dallas,TX,US,US/Central
75206-7934,Dallas,Dallas,TX,US,US/Central
75208-4520,Dallas,Dallas,TX,US,US/Central
75215-2603,Dallas,Dallas,TX,US,US/Central
75216-5418,Dallas,Dallas,TX,US,US/Central
75217-4297,Dallas,Dallas,TX,US,US/Central
75217-6744,Dallas,Dallas,TX,US,US/Central
75228-4408,Dallas,Dallas,TX,US,US/Central
75228-5522,Dallas,Dallas,TX,US,US/Central
75228-6665,Dallas,Dallas,TX,US,US/Central
75230-5318,Dallas,Dallas,TX,US,US/Central
75235-5202,Dallas,Dallas,TX,US,US/Central
75243-3509,Dallas,Dallas,TX,US,US/Central
75602,Longview,Gregg,TX,US,US/Central
75845-4804,Groveton,Trinity,TX,US,US/Central
75901-6162,Lufkin,Angelina,TX,US,US/Central
76010-3056,Arlington,Tarrant,TX,US,US/Central
76112-3816,Fort Worth,Tarrant,TX,US,US/Central
76210-4215,Denton,Denton,TX,US,US/Central
76302-3520,Wichita Falls,Wichita,TX,US,US/Central
76302-5118,Wichita Falls,Wichita,TX,US,US/Central
76306-3111,Wichita Falls,Wichita,TX,US,US/Central
76306-4914,Wichita Falls,Wichita,TX,US,US/Central
76309-4415,Wichita Falls,Wichita,TX,US,US/Central
76527-4220,Florence,Williamson,TX,US,US/Central
77002-8219,Houston,Harris,TX,US,US/Central
77003-1005,Houston,Harris,TX,US,US/Central
77004-4007,Houston,Harris,TX,US,US/Central
77006-1726,Houston,Harris,TX,US,US/Central
77006-6338,Houston,Harris,TX,US,US/Central
77007-5436,Houston,Harris,TX,US,US/Central
77007-7513,Houston,Harris,TX,US,US/Central
77008-2244,Houston,Harris,TX,US,US/Central
77008-2512,Houston,Harris,TX,US,US/Central
77009-5911,Houston,Harris,TX,US,US/Central
77012-2650,Houston,Harris,TX,US,US/Central
77013-4609,Houston,Harris,TX,US,US/Central
77013-5201,Houston,Harris,TX,US,US/Central
77019-3812,Houston,Harris,TX,US,US/Central
77019-5014,Houston,Harris,TX,US,US/Central
77019-6522,Houston,Harris,TX,US,US/Central
77021-2015,Houston,Harris,TX,US,US/Central
77021-2416,Houston,Harris,TX,US,US/Central
77023-5501,Houston,Harris,TX,US,US/Central
77024-1301,Houston,Harris,TX,US,US/Central
77024-7014,Houston,Harris,TX,US,US/Central
77026-1809,Houston,Harris,TX,US,US/Central
77027-6709,Houston,Harris,TX,US,US/Central
77040-5326,Houston,Harris,TX,US,US/Central
77042-4203,Houston,Harris,TX,US,US/Central
77045-3726,Houston,Harris,TX,US,US/Central
77051-1925,Houston,Harris,TX,US,US/Central
77054-3808,Houston,Harris,TX,US,US/Central
77055-1721,Houston,Harris,TX,US,US/Central
77055-4323,Houston,Harris,TX,US,US/Central
77057-2622,Houston,Harris,TX,US,US/Central
77061-2622,Houston,Harris,TX,US,US/Central
77074-4909,Houston,Harris,TX,US,US/Central
77077-5805,Houston,Harris,TX,US,US/Central
77085-1707,Houston,Harris,TX,US,US/Central
77085-2261,Houston,Harris,TX,US,US/Central
77087-4622,Houston,Harris,TX,US,US/Central
77087-6511,Houston,Harris,TX,US,US/Central
77088-3602,Houston,Harris,TX,US,US/Central
77088-6235,Houston,Harris,TX,US,US/Central
77088-7913,Houston,Harris,TX,US,US/Central
77090-6927,Houston,Harris,TX,US,US/Central
77091-1107,Houston,Harris,TX,US,US/Central
77091-2341,Houston,Harris,TX,US,US/Central
77091-3361,Houston,Harris,TX,US,US/Central
77092-5502,Houston,Harris,TX,US,US/Central
77092-5700,Houston,Harris,TX,US,US/Central
77093-5815,Houston,Harris,TX,US,US/Central
77303,Conroe,Montgomery,TX,US,US/Central
77318-4924,Willis,Montgomery,TX,US,US/Central
77338-2502,Humble,Harris,TX,US,US/Central
77339,Kingwood,Harris,TX,US,US/Central
77371,Shepherd,San Jacinto,TX,US,US/Central
77578-3834,Manvel,Brazoria,TX,US,US/Central
77586-1566,Seabrook,Harris,TX,US,US/Central
77598-2328,Webster,Harris,TX,US,US/Central
77705-1512,Beaumont,Jefferson,TX,US,US/Central
78073,Von Ormy,Bexar,TX,US,US/Central
78202-1629,San Antonio,Bexar,TX,US,US/Central
78203-1742,San Antonio,Bexar,TX,US,US/Central
78203-1905,San Antonio,Bexar,TX,US,US/Central
78210-2002,San Antonio,Bexar,TX,US,US/Central
78210-4834,San Antonio,Bexar,TX,US,US/Central
78211-3747,San Antonio,Bexar,TX,US,US/Central
78213-3037,San Antonio,Bexar,TX,US,US/Central
78216-6220,San Antonio,Bexar,TX,US,US/Central
78218-4405,San Antonio,Bexar,TX,US,US/Central
78218-4628,San Antonio,Bexar,TX,US,US/Central
78219-4117,San Antonio,Bexar,TX,US,US/Central
78220-4032,San Antonio,Bexar,TX,US,US/Central
78221-1145,San Antonio,Bexar,TX,US,US/Central
78223-1700,San Antonio,Bexar,TX,US,US/Central
78233-4944,San Antonio,Bexar,TX,US,US/Central
78237-1970,San Antonio,Bexar,TX,US,US/Central
78240-3944,San Antonio,Bexar,TX,US,US/Central
78370-4003,Odem,San Patricio,TX,US,US/Central
78621-4147,Elgin,Travis,TX,US,US/Central
78621-5946,Elgin,Bastrop,TX,US,US/Central
78653-4517,Manor,Travis,TX,US,US/Central
78660-7665,Pflugerville,Travis,TX,US,US/Central
78660-7803,Pflugerville,Travis,TX,US,US/Central
78669-2330,Spicewood,Travis,TX,US,US/Central
78703-1804,Austin,Travis,TX,US,US/Central
78703-3054,Austin,Travis,TX,US,US/Central
78704-4733,Austin,Travis,TX,US,US/Central
78704-7220,Austin,Travis,TX,US,US/Central
78721-2209,Austin,Travis,TX,US,US/Central
78722-1216,Austin,Travis,TX,US,US/Central
78723-3924,Austin,Travis,TX,US,US/Central
78728-3905,Austin,Travis,TX,US,US/Central
78736-3207,Austin,Travis,TX,US,US/Central
78738-3109,Bee Cave,Travis,TX,US,US/Central
78741-2408,Austin,Travis,TX,US,US/Central
78741-3435,Austin,Travis,TX,US,US/Central
78745-3108,Austin,Travis,TX,US,US/Central
78745-6424,Austin,Travis,TX,US,US/Central
78746-1437,Austin,Travis,TX,US,US/Central
78746-6609,West Lake Hills,Travis,TX,US,US/Central
78748-1662,Austin,Travis,TX,US,US/Central
78752-3005,Austin,Travis,TX,US,US/Central
78758-5035,Austin,Travis,TX,US,US/Central
78759-4577,Austin,Travis,TX,US,US/Central
80735-9702,Idalia,Yuma,CO,US,US/Central
32405-6317,Panama City,Bay,FL,US,US/Central
32425-9063,Bonifay,Washington,FL,US,US/Central
32459-5516,Santa Rosa Beach,Walton,FL,US,US/Central
32526-5206,Pensacola,Escambia,FL,US,US/Central
32536-5288,Crestview,Okaloosa,FL,US,US/Central
32569-2261,Mary Esther,Okaloosa,FL,US,US/Central
35031-6664,Blountsville,Blount,AL,US,US/Central
35085-6351,Jemison,Chilton,AL,US,US/Central
35089,Kellyton,Coosa,AL,US,US/Central
35121-5129,Oneonta,Blount,AL,US,US/Central
35188-3018,Woodstock,Bibb,AL,US,US/Central
35204-1811,Birmingham,Jefferson,AL,US,US/Central
35204-3777,Birmingham,Jefferson,AL,US,US/Central
35207-2537,Birmingham,Jefferson,AL,US,US/Central
35208-4423,Birmingham,Jefferson,AL,US,US/Central
35211-5002,Birmingham,Jefferson,AL,US,US/Central
35233-1105,Birmingham,Jefferson,AL,US,US/Central
35244-1005,Hoover,Jefferson,AL,US,US/Central
35466-5328,Gordo,Pickens,AL,US,US/Central
35475-3040,Northport,Tuscaloosa,AL,US,US/Central
35476-3337,Northport,Tuscaloosa,AL,US,US/Central
35640-3030,Hartselle,Morgan,AL,US,US/Central
35741-9773,Brownsboro,Madison,AL,US,US/Central
35773-7033,Toney,Madison,AL,US,US/Central
35801-5602,Huntsville,Madison,AL,US,US/Central
36107-2209,Montgomery,Montgomery,AL,US,US/Central
36116-6545,Montgomery,Montgomery,AL,US,US/Central
36345-8468,Headland,Henry,AL,US,US/Central
36606-2606,Mobile,Mobile,AL,US,US/Central
36606-4241,Mobile,Mobile,AL,US,US/Central
37013-1348,Antioch,Davidson,TN,US,US/Central
37013-1378,Antioch,Davidson,TN,US,US/Central
37013-3713,Antioch,Davidson,TN,US,US/Central
37027-4023,Brentwood,Davidson,TN,US,US/Central
37076-3121,Hermitage,Davidson,TN,US,US/Central
37115-2302,Madison,Davidson,TN,US,US/Central
37189-9168,Whites Creek,Davidson,TN,US,US/Central
37203-1034,Nashville,Davidson,TN,US,US/Central
37203-1424,Nashville,Davidson,TN,US,US/Central
37203-1501,Nashville,Davidson,TN,US,US/Central
37203-2941,Nashville,Davidson,TN,US,US/Central
37203-3417,Nashville,Davidson,TN,US,US/Central
37203-3703,Nashville,Davidson,TN,US,US/Central
37204-2944,Nashville,Davidson,TN,US,US/Central
37204-3100,Nashville,Davidson,TN,US,US/Central
37205-2202,Nashville,Davidson,TN,US,US/Central
37206-1020,Nashville,Davidson,TN,US,US/Central
37207-4015,Nashville,Davidson,TN,US,US/Central
37209-1307,Nashville,Davidson,TN,US,US/Central
37209-5603,Nashville,Davidson,TN,US,US/Central
37210-2114,Nashville,Davidson,TN,US,US/Central
37211-2203,Nashville,Davidson,TN,US,US/Central
37211-6272,Nashville,Davidson,TN,US,US/Central
37214-2408,Nashville,Davidson,TN,US,US/Central
37217-1918,Nashville,Davidson,TN,US,US/Central
37218-2427,Nashville,Davidson,TN,US,US/Central
37221-4629,Nashville,Davidson,TN,US,US/Central
38018-6217,Cordova,Shelby,TN,US,US/Central
38053-5747,Millington,Shelby,TN,US,US/Central
38111-6836,Memphis,Shelby,TN,US,US/Central
38114-1741,Memphis,Shelby,TN,US,US/Central
39083,Hazlehurst,Copiah,MS,US,US/Central
46391,Westville,LaPorte,IN,US,US/Central
50009-9477,Altoona,Polk,IA,US,US/Central
50036,Boone,Boone,IA,US,US/Central
50310-3247,Des Moines,Polk,IA,US,US/Central
51039-8057,Moville,Woodbury,IA,US,US/Central
51503-5056,Council Bluffs,Pottawattamie,IA,US,US/Central
51503-7890,Council Bluffs,Pottawattamie,IA,US,US/Central
51601-4558,Shenandoah,Page,IA,US,US/Central
53023,Glenbeulah,Sheboygan,WI,US,US/Central
53204-2124,Milwaukee,Milwaukee,WI,US,US/Central
53207-1073,Milwaukee,Milwaukee,WI,US,US/Central
53209-5320,Milwaukee,Milwaukee,WI,US,US/Central
53212-2053,Milwaukee,Milwaukee,WI,US,US/Central
53216-1119,Milwaukee,Milwaukee,WI,US,US/Central
53218-4538,Milwaukee,Milwaukee,WI,US,US/Central
53223-5206,Milwaukee,Milwaukee,WI,US,US/Central
53404-2247,Mount Pleasant,Racine,WI,US,US/Central
53533-1175,Dodgeville,Iowa,WI,US,US/Central
54301-1418,Green Bay,Brown,WI,US,US/Central
54559,Saxon,Iron,WI,US,US/Central
54619-8172,Cashton,Monroe,WI,US,US/Central
54729,Chippewa Falls,Chippewa,WI,US,US/Central
54956-9741,Neenah,Winnebago,WI,US,US/Central
55057-5427,Northfield,Dakota,MN,US,US/Central
55068-3439,Rosemount,Dakota,MN,US,US/Central
55072-5041,Sandstone,Pine,MN,US,US/Central
55077-2701,Inver Grove Heights,Dakota,MN,US,US/Central
55119-5666,Saint Paul,Ramsey,MN,US,US/Central
55122-1014,Saint Paul,Dakota,MN,US,US/Central
55334-2185,Gaylord,Sibley,MN,US,US/Central
55443,Minneapolis,Hennepin,MN,US,US/Central
55751-8039,Iron,Saint Louis,MN,US,US/Central
55807,Duluth,St. Louis,MN,US,US/Central
56081,Saint James,Watonwan,MN,US,US/Central
56119-2006,Brewster,Nobles,MN,US,US/Central
56501,Detroit Lakes,Otter Tail,MN,US,US/Central
56716,Crookston,Polk,MN,US,US/Central
60041-9540,Ingleside,Lake,IL,US,US/Central
60046-7334,Lake Villa,Lake,IL,US,US/Central
60046-9650,Lindenhurst,Lake,IL,US,US/Central
60071-9712,Richmond,Mchenry,IL,US,US/Central
60083-9671,Wadsworth,Lake,IL,US,US/Central
60084-1966,Wauconda,Lake,IL,US,US/Central
60099-1953,Zion,Lake,IL,US,US/Central
60103-1695,Bartlett,DuPage,IL,US,US/Central
60120-5754,Elgin,Kane,IL,US,US/Central
60123-5118,Elgin,Kane,IL,US,US/Central
60123-5123,Elgin,Kane,IL,US,US/Central
60123-6154,Elgin,Kane,IL,US,US/Central
60133-2241,Hanover Park,Cook,IL,US,US/Central
60181-1222,Villa Park,Dupage,IL,US,US/Central
60181-3250,Villa Park,DuPage,IL,US,US/Central
60187-5567,Wheaton,Dupage,IL,US,US/Central
60440-2380,Bolingbrook,Will,IL,US,US/Central
60491,Homer Glen,Will,IL,US,US/Central
60515-2133,Downers Grove,Dupage,IL,US,US/Central
60515-4841,Downers Grove,Dupage,IL,US,US/Central
60517-2033,Woodridge,Dupage,IL,US,US/Central
60521-2451,Hinsdale,Dupage,IL,US,US/Central
60521-4542,Hinsdale,Dupage,IL,US,US/Central
60609-4011,Chicago,Cook,IL,US,US/Central
60612-4024,Chicago,Cook,IL,US,US/Central
60616-1038,Chicago,Cook,IL,US,US/Central
60620-2721,Chicago,Cook,IL,US,US/Central
60622-1913,Chicago,Cook,IL,US,US/Central
60625-2112,Chicago,Cook,IL,US,US/Central
60628-2132,Chicago,Cook,IL,US,US/Central
60629-3830,Chicago,Cook,IL,US,US/Central
60637-4727,Chicago,Cook,IL,US,US/Central
60641-2633,Chicago,Cook,IL,US,US/Central
60646-5706,Chicago,Cook,IL,US,US/Central
60649-1029,Chicago,Cook,IL,US,US/Central
61540-8806,Lacon,Marshall,IL,US,US/Central
61554-2579,Pekin,Tazewell,IL,US,US/Central
61554-3616,Pekin,Tazewell,IL,US,US/Central
61554-4973,Pekin,Tazewell,IL,US,US/Central
61554-7826,Pekin,Tazewell,IL,US,US/Central
61571-1347,Washington,Tazewell,IL,US,US/Central
62233-1123,Chester,Randolph,IL,US,US/Central
63090-5470,Washington,Franklin,MO,US,US/Central
63126,Saint Louis,St. Louis County,MO,US,US/Central
63640-7230,Farmington,St. Francois,MO,US,US/Central
64129-1688,Kansas City,Jackson,MO,US,US/Central
65802-5928,Springfield,Greene,MO,US,US/Central
66006-7226,Baldwin City,Douglas,KS,US,US/Central
66603,Topeka,Shawnee,KS,US,US/Central
68105-3632,Omaha,Douglas,NE,US,US/Central
68107-2516,Omaha,Douglas,NE,US,US/Central
68110-2133,Omaha,Douglas,NE,US,US/Central
68114-4411,Omaha,Douglas,NE,US,US/Central
68114-5160,Omaha,Douglas,NE,US,US/Central
68117-1329,Omaha,Douglas,NE,US,US/Central
68122-1533,Omaha,Douglas,NE,US,US/Central
68137-3322,Omaha,Douglas,NE,US,US/Central
68138-6450,Omaha,Douglas,NE,US,US/Central
68154-3717,Omaha,Douglas,NE,US,US/Central
68341,De Witt,Saline,NE,US,US/Central
70501-6836,Lafayette,Lafayette,LA,US,US/Central
70501-6904,Lafayette,Lafayette,LA,US,US/Central
70506-2737,Lafayette,Lafayette,LA,US,US/Central
70506-5903,Lafayette,Lafayette,LA,US,US/Central
70508-2546,Lafayette,Lafayette,LA,US,US/Central
70508-5231,Lafayette,Lafayette,LA,US,US/Central
70508-7133,Lafayette,Lafayette,LA,US,US/Central
70518-5704,Broussard,Lafayette,LA,US,US/Central
70520-4121,Carencro,Lafayette,LA,US,US/Central
70583-5182,Scott,Lafayette,LA,US,US/Central
70665,Sulphur,Calcasieu,LA,US,US/Central
70791-3616,Zachary,East Baton Rouge,LA,US,US/Central
70802-6112,Baton Rouge,East Baton Rouge,LA,US,US/Central
70802-8169,Baton Rouge,East Baton Rouge,LA,US,US/Central
70805-4530,Baton Rouge,East Baton Rouge,LA,US,US/Central
70805-8152,Baton Rouge,East Baton Rouge,LA,US,US/Central
70806-6317,Baton Rouge,East Baton Rouge,LA,US,US/Central
70808-1182,Baton Rouge,East Baton Rouge,LA,US,US/Central
70808-4315,Baton Rouge,East Baton Rouge,LA,US,US/Central
70809-1291,Baton Rouge,East Baton Rouge,LA,US,US/Central
70809-3540,Baton Rouge,East Baton Rouge,LA,US,US/Central
70809-4525,Baton Rouge,East Baton Rouge,LA,US,US/Central
70810-2824,Baton Rouge,East Baton Rouge,LA,US,US/Central
70811-5640,Baton Rouge,East Baton Rouge,LA,US,US/Central
70814-4801,Baton Rouge,East Baton Rouge,LA,US,US/Central
70815-4035,Baton Rouge,East Baton Rouge,LA,US,US/Central
70815-4360,Baton Rouge,East Baton Rouge,LA,US,US/Central
70815-5047,Baton Rouge,East Baton Rouge,LA,US,US/Central
70816-1598,Baton Rouge,East Baton Rouge,LA,US,US/Central
70817-1622,Baton Rouge,East Baton Rouge,LA,US,US/Central
70820-7355,Baton Rouge,East Baton Rouge,LA,US,US/Central
71101-3863,Shreveport,Caddo,LA,US,US/Central
71103-2142,Shreveport,Caddo,LA,US,US/Central
71108-2234,Shreveport,Caddo,LA,US,US/Central
72015-6601,Benton,Saline,AR,US,US/Central
72069,Holly Grove,Phillips,AR,US,US/Central
72175,Wabbaseka,Jefferson,AR,US,US/Central
73012-1202,Edmond,Oklahoma,OK,US,US/Central
73049-8308,Jones,Oklahoma,OK,US,US/Central
73095-3365,Wayne,McClain,OK,US,US/Central
73099-7361,Yukon,Canadian,OK,US,US/Central
73107-6404,Oklahoma City,Oklahoma,OK,US,US/Central
73111-5001,Oklahoma City,Oklahoma,OK,US,US/Central
73112-2118,Oklahoma City,Oklahoma,OK,US,US/Central
73112-7161,Oklahoma City,Oklahoma,OK,US,US/Central
73114-3319,Oklahoma City,Oklahoma,OK,US,US/Central
73114-4826,Oklahoma City,Oklahoma,OK,US,US/Central
73114-8107,Oklahoma City,Oklahoma,OK,US,US/Central
73116-4226,Oklahoma City,Oklahoma,OK,US,US/Central
73117-4612,Oklahoma City,Oklahoma,OK,US,US/Central
73119-3616,Oklahoma City,Oklahoma,OK,US,US/Central
73120-3106,Oklahoma City,Oklahoma,OK,US,US/Central
73127-5934,Oklahoma City,Oklahoma,OK,US,US/Central
73131,Oklahoma City,Oklahoma,OK,US,US/Central
73132-4712,Oklahoma City,Oklahoma,OK,US,US/Central
73132-5488,Oklahoma City,Oklahoma,OK,US,US/Central
73142-4441,Oklahoma City,Oklahoma,OK,US,US/Central
73162-7455,Oklahoma City,Oklahoma,OK,US,US/Central
73170-6208,Oklahoma City,Cleveland,OK,US,US/Central
73170-7453,Oklahoma City,Cleveland,OK,US,US/Central
74021-3316,Collinsville,Tulsa,OK,US,US/Central
74105-6383,Tulsa,Tulsa,OK,US,US/Central
74112-3142,Tulsa,Tulsa,OK,US,US/Central
74112-6202,Tulsa,Tulsa,OK,US,US/Central
74112-7310,Tulsa,Tulsa,OK,US,US/Central
74115-1118,Tulsa,Tulsa,OK,US,US/Central
74115-6245,Tulsa,Tulsa,OK,US,US/Central
74120-5459,Tulsa,Tulsa,OK,US,US/Central
74120-5803,Tulsa,Tulsa,OK,US,US/Central
74129-3017,Tulsa,Tulsa,OK,US,US/Central
74129-4641,Tulsa,Tulsa,OK,US,US/Central
74133-6903,Tulsa,Tulsa,OK,US,US/Central
74145-3384,Tulsa,Tulsa,OK,US,US/Central
74344-8208,Grove,Delaware,OK,US,US/Central
74363,Quapaw,Ottawa,OK,US,US/Central
74745,Idabel,McCurtain,OK,US,US/Central
75044-6553,Garland,Dallas,TX,US,US/Central
75116-2827,Duncanville,Dallas,TX,US,US/Central
75202-4522,Dallas,Dallas,TX,US,US/Central
75203-2725,Dallas,Dallas,TX,US,US/Central
75206-5610,Dallas,Dallas,TX,US,US/Central
75208-5620,Dallas,Dallas,TX,US,US/Central
75211-5129,Dallas,Dallas,TX,US,US/Central
75211-6138,Dallas,Dallas,TX,US,US/Central
75211-8723,Dallas,Dallas,TX,US,US/Central
75216-4745,Dallas,Dallas,TX,US,US/Central
75217-3634,Dallas,Dallas,TX,US,US/Central
75228-1826,Dallas,Dallas,TX,US,US/Central
75229-6625,Dallas,Dallas,TX,US,US/Central
75231-2208,Dallas,Dallas,TX,US,US/Central
75231-5010,Dallas,Dallas,TX,US,US/Central
75243-3581,Dallas,Dallas,TX,US,US/Central
75246-1006,Dallas,Dallas,TX,US,US/Central
75605-7842,Longview,Gregg,TX,US,US/Central
75605-9261,Longview,Gregg,TX,US,US/Central
76053-4946,Hurst,Tarrant,TX,US,US/Central
76104-1351,Fort Worth,Tarrant,TX,US,US/Central
76104-4253,Fort Worth,Tarrant,TX,US,US/Central
76182-7403,North Richland Hills,Tarrant,TX,US,US/Central
76301-2503,Wichita Falls,Wichita,TX,US,US/Central
77002-2527,Houston,Harris,TX,US,US/Central
77002-3602,Houston,Harris,TX,US,US/Central
77002-8108,Houston,Harris,TX,US,US/Central
77002-8502,Houston,Harris,TX,US,US/Central
77003-4306,Houston,Harris,TX,US,US/Central
77003-5953,Houston,Harris,TX,US,US/Central
77004-5280,Houston,Harris,TX,US,US/Central
77006-1246,Houston,Harris,TX,US,US/Central
77006-4239,Houston,Harris,TX,US,US/Central
77006-6310,Houston,Harris,TX,US,US/Central
77006-6609,Houston,Harris,TX,US,US/Central
77007-1149,Houston,Harris,TX,US,US/Central
77007-5002,Houston,Harris,TX,US,US/Central
77009-8412,Houston,Harris,TX,US,US/Central
77013-5747,Houston,Harris,TX,US,US/Central
77016-6103,Houston,Harris,TX,US,US/Central
77018-4630,Houston,Harris,TX,US,US/Central
77019-6739,Houston,Harris,TX,US,US/Central
77020-7048,Houston,Harris,TX,US,US/Central
77020-7049,Houston,Harris,TX,US,US/Central
77026-1823,Houston,Harris,TX,US,US/Central
77026-1914,Houston,Harris,TX,US,US/Central
77026-1967,Houston,Harris,TX,US,US/Central
77032-2300,Houston,Harris,TX,US,US/Central
77035-2704,Houston,Harris,TX,US,US/Central
77035-5244,Houston,Harris,TX,US,US/Central
77035-6657,Houston,Harris,TX,US,US/Central
77039-6308,Houston,Harris,TX,US,US/Central
77045-3202,Houston,Harris,TX,US,US/Central
77045-3838,Houston,Harris,TX,US,US/Central
77051-2747,Houston,Harris,TX,US,US/Central
77055-4919,Houston,Harris,TX,US,US/Central
77056-6506,Houston,Harris,TX,US,US/Central
77063-5433,Houston,Harris,TX,US,US/Central
77067-4527,Houston,Harris,TX,US,US/Central
77068-3704,Houston,Harris,TX,US,US/Central
77072-1322,Houston,Harris,TX,US,US/Central
77072-3416,Houston,Harris,TX,US,US/Central
77072-5001,Houston,Harris,TX,US,US/Central
77074-2307,Houston,Harris,TX,US,US/Central
77076-2733,Houston,Harris,TX,US,US/Central
77077-1592,Houston,Harris,TX,US,US/Central
77081-3101,Houston,Harris,TX,US,US/Central
77082-2641,Houston,Harris,TX,US,US/Central
77084-4917,Houston,Harris,TX,US,US/Central
77086-3161,Houston,Harris,TX,US,US/Central
77088-5235,Houston,Harris,TX,US,US/Central
77088-6706,Houston,Harris,TX,US,US/Central
77089-1337,Houston,Harris,TX,US,US/Central
77089-4616,Houston,Harris,TX,US,US/Central
77092-7909,Houston,Harris,TX,US,US/Central
77099-3706,Houston,Harris,TX,US,US/Central
77346-5049,Humble,Harris,TX,US,US/Central
77396-2904,Humble,Harris,TX,US,US/Central
77511-7952,Alvin,Brazoria,TX,US,US/Central
78207-2603,San Antonio,Bexar,TX,US,US/Central
78208-1926,San Antonio,Bexar,TX,US,US/Central
78211,San Antonio,Bexar,TX,US,US/Central
78212-4515,San Antonio,Bexar,TX,US,US/Central
78212-5115,San Antonio,Bexar,TX,US,US/Central
78212-5186,San Antonio,Bexar,TX,US,US/Central
78237-2012,San Antonio,Bexar,TX,US,US/Central
78240-1544,San Antonio,Bexar,TX,US,US/Central
78247-3725,San Antonio,Bexar,TX,US,US/Central
78539-7076,Edinburg,Hidalgo,TX,US,US/Central
78580-4616,Raymondville,Willacy,TX,US,US/Central
78620-2870,Dripping Springs,Travis,TX,US,US/Central
78641-7520,Leander,Williamson,TX,US,US/Central
78653-4522,Manor,Travis,TX,US,US/Central
78660-3130,Pflugerville,Travis,TX,US,US/Central
78660-8242,Pflugerville,Travis,TX,US,US/Central
78664-9326,Round Rock,Williamson,TX,US,US/Central
78669-5109,Spicewood,Travis,TX,US,US/Central
78676-5304,Wimberley,Hays,TX,US,US/Central
78701-2604,Austin,Travis,TX,US,US/Central
78702-2713,Austin,Travis,TX,US,US/Central
78702-3304,Austin,Travis,TX,US,US/Central
78702-3408,Austin,Travis,TX,US,US/Central
78702-4305,Austin,Travis,TX,US,US/Central
78703-4619,Austin,Travis,TX,US,US/Central
78704-7304,Austin,Travis,TX,US,US/Central
78705-3800,Austin,Travis,TX,US,US/Central
78719-3605,Austin,Travis,TX,US,US/Central
78722-2100,Austin,Travis,TX,US,US/Central
78723-3040,Austin,Travis,TX,US,US/Central
78724-2412,Austin,Travis,TX,US,US/Central
78724-3437,Austin,Travis,TX,US,US/Central
78727-6721,Austin,Travis,TX,US,US/Central
78728-5747,Austin,Travis,TX,US,US/Central
78729-5409,Austin,Williamson,TX,US,US/Central
78734-6203,Lakeway,Travis,TX,US,US/Central
78734-6221,Lakeway,Travis,TX,US,US/Central
78736-7985,Austin,Travis,TX,US,US/Central
78741-2409,Austin,Travis,TX,US,US/Central
78745-1304,Austin,Travis,TX,US,US/Central
78745-8029,Austin,Travis,TX,US,US/Central
78746-5229,West Lake Hills,Travis,TX,US,US/Central
78748-5801,Austin,Travis,TX,US,US/Central
78749-4421,Austin,Travis,TX,US,US/Central
78750-3215,Austin,Williamson,TX,US,US/Central
78751-2241,Austin,Travis,TX,US,US/Central
78751-4121,Austin,Travis,TX,US,US/Central
78752-3508,Austin,Travis,TX,US,US/Central
78752-4148,Austin,Travis,TX,US,US/Central
78753-5646,Austin,Travis,TX,US,US/Central
78753-6816,Austin,Travis,TX,US,US/Central
78754-5409,Austin,Travis,TX,US,US/Central
78756-2512,Austin,Travis,TX,US,US/Central
78757-2546,Austin,Travis,TX,US,US/Central
78757-2835,Austin,Travis,TX,US,US/Central
78757-3229,Austin,Travis,TX,US,US/Central
78757-6938,Austin,Travis,TX,US,US/Central
78758-6130,Austin,Travis,TX,US,US/Central
78758-8431,Austin,Travis,TX,US,US/Central
79360,Seminole,Gaines,TX,US,US/Central
79504,Baird,Callahan,TX,US,US/Central
79707-1423,Midland,Midland,TX,US,US/Central
32425-7301,Bonifay,Holmes,FL,US,US/Central
32460-3926,Sneads,Jackson,FL,US,US/Central
32514,Pensacola,Escambia,FL,US,US/Central
32526-8577,Pensacola,Escambia,FL,US,US/Central
32533-7759,Cantonment,Escambia,FL,US,US/Central
32539-7212,Crestview,Okaloosa,FL,US,US/Central
32539-7803,Crestview,Okaloosa,FL,US,US/Central
32548-6218,Fort Walton Beach,Okaloosa,FL,US,US/Central
32570-9579,Milton,Santa Rosa,FL,US,US/Central
35046,Clanton,Chilton,AL,US,US/Central
35079-3222,Hayden,Blount,AL,US,US/Central
35079-4742,Hayden,Blount,AL,US,US/Central
35124-4836,Pelham,Shelby,AL,US,US/Central
35126-5126,Pinson,Blount,AL,US,US/Central
35146-8014,Springville,St. Clair,AL,US,US/Central
35207-3834,Birmingham,Jefferson,AL,US,US/Central
35222-1313,Birmingham,Jefferson,AL,US,US/Central
35226-3732,Vestavia,Jefferson,AL,US,US/Central
35234-3121,Birmingham,Jefferson,AL,US,US/Central
35401-3633,Tuscaloosa,Tuscaloosa,AL,US,US/Central
35474-6202,Moundville,Tuscaloosa,AL,US,US/Central
35601-6512,Decatur,Morgan,AL,US,US/Central
35973,Gaylesville,Cherokee,AL,US,US/Central
36064-3088,Pike Road,Montgomery,AL,US,US/Central
36067-3042,Prattville,Autauga,AL,US,US/Central
36067-4525,Prattville,Autauga,AL,US,US/Central
36260,Eastaboga,Talladega,AL,US,US/Central
36527-3185,Daphne,Baldwin,AL,US,US/Central
36582-1810,Theodore,Mobile,AL,US,US/Central
36608-3930,Mobile,Mobile,AL,US,US/Central
36693-3728,Mobile,Mobile,AL,US,US/Central
37013-2338,Antioch,Davidson,TN,US,US/Central
37076-3157,Hermitage,Davidson,TN,US,US/Central
37076-3222,Hermitage,Davidson,TN,US,US/Central
37080-8984,Joelton,Davidson,TN,US,US/Central
37101-4446,Mc Ewen,Humphreys,TN,US,US/Central
37203-1818,Nashville,Davidson,TN,US,US/Central
37205-2506,Nashville,Davidson,TN,US,US/Central
37206-1250,Nashville,Davidson,TN,US,US/Central
37207-5822,Nashville,Davidson,TN,US,US/Central
37208-1040,Nashville,Davidson,TN,US,US/Central
37208-2671,Nashville,Davidson,TN,US,US/Central
37208-2831,Nashville,Davidson,TN,US,US/Central
37209-2815,Nashville,Davidson,TN,US,US/Central
37211-5854,Nashville,Davidson,TN,US,US/Central
37214-3140,Nashville,Davidson,TN,US,US/Central
37217-3514,Nashville,Davidson,TN,US,US/Central
37220-2307,Nashville,Davidson,TN,US,US/Central
37228,Nashville,Davidson,TN,US,US/Central
37879-6372,Tazewell,Claiborne,TN,US,US/Central
38117-7430,Memphis,Shelby,TN,US,US/Central
38119-7548,Memphis,Shelby,TN,US,US/Central
38120-2510,Memphis,Shelby,TN,US,US/Central
38401-2104,Columbia,Maury,TN,US,US/Central
38583-3616,Sparta,White,TN,US,US/Central
38961,Tillatoba,Yalobusha,MS,US,US/Central
39166,Silver City,Humphreys,MS,US,US/Central
39503-8421,Gulfport,Harrison,MS,US,US/Central
42071-7105,Murray,Calloway,KY,US,US/Central
46385-9040,Valparaiso,Porter,IN,US,US/Central
47635-8613,Rockport,Spencer,IN,US,US/Central
50001,Ackworth,Warren,IA,US,US/Central
50131-1207,Johnston,Polk,IA,US,US/Central
50226-5705,Polk City,Polk,IA,US,US/Central
50322-3037,Urbandale,Polk,IA,US,US/Central
51501-1700,Council Bluffs,Pottawattamie,IA,US,US/Central
52328-9646,Robins,Linn,IA,US,US/Central
53204-1848,Milwaukee,Milwaukee,WI,US,US/Central
53208-1002,Milwaukee,Milwaukee,WI,US,US/Central
53211-4522,Milwaukee,Milwaukee,WI,US,US/Central
53214-1715,Milwaukee,Milwaukee,WI,US,US/Central
53216-2402,Milwaukee,Milwaukee,WI,US,US/Central
53223,Milwaukee,Milwaukee,WI,US,US/Central
53713-2603,Madison,Dane,WI,US,US/Central
53925-1015,Columbus,Columbia,WI,US,US/Central
54723-8407,Bay City,Pierce,WI,US,US/Central
54814,Bayfield,Bayfield,WI,US,US/Central
54911-5804,Appleton,Outagamie,WI,US,US/Central
55104-5404,Saint Paul,Ramsey,MN,US,US/Central
55109-3112,Saint Paul,Ramsey,MN,US,US/Central
55120-1106,Saint Paul,Dakota,MN,US,US/Central
56143-3015,Jackson,Jackson,MN,US,US/Central
56352-8524,Melrose,Stearns,MN,US,US/Central
56401-6060,Brainerd,Crow Wing,MN,US,US/Central
60043-1002,Kenilworth,Cook,IL,US,US/Central
60047-5298,Long Grove,Lake,IL,US,US/Central
60047-8955,Long Grove,Lake,IL,US,US/Central
60090-5940,Wheeling,Cook,IL,US,US/Central
60103-1650,Bartlett,Dupage,IL,US,US/Central
60120-3017,Elgin,Kane,IL,US,US/Central
60123-3341,Elgin,Kane,IL,US,US/Central
60123-7006,Elgin,Kane,IL,US,US/Central
60123-7618,Elgin,Kane,IL,US,US/Central
60126-2012,Elmhurst,Dupage,IL,US,US/Central
60126-2134,Elmhurst,DuPage,IL,US,US/Central
60126-2311,Elmhurst,Dupage,IL,US,US/Central
60126-2355,Elmhurst,Dupage,IL,US,US/Central
60126-4729,Elmhurst,Dupage,IL,US,US/Central
60135-8924,Genoa,DeKalb,IL,US,US/Central
60137-4269,Glen Ellyn,Dupage,IL,US,US/Central
60137-6493,Glen Ellyn,DuPage,IL,US,US/Central
60174-3569,Saint Charles,Kane,IL,US,US/Central
60187-3746,Wheaton,DuPage,IL,US,US/Central
60187-5243,Wheaton,DuPage,IL,US,US/Central
60189-6428,Wheaton,DuPage,IL,US,US/Central
60410-5385,Channahon,Will,IL,US,US/Central
60419-2932,Dolton,Cook,IL,US,US/Central
60423-1638,Frankfort,Will,IL,US,US/Central
60515-4920,Downers Grove,DuPage,IL,US,US/Central
60516-4212,Downers Grove,Dupage,IL,US,US/Central
60532-2221,Lisle,DuPage,IL,US,US/Central
60628-3126,Chicago,Cook,IL,US,US/Central
60631-1422,Chicago,Cook,IL,US,US/Central
60638-2723,Chicago,Cook,IL,US,US/Central
60646-5413,Chicago,Cook,IL,US,US/Central
60646-5944,Chicago,Cook,IL,US,US/Central
60656-4034,Chicago,Cook,IL,US,US/Central
60657-3208,Chicago,Cook,IL,US,US/Central
60714-1619,Niles,Cook,IL,US,US/Central
60714-2712,Niles,Cook,IL,US,US/Central
61008-9342,Belvidere,Boone,IL,US,US/Central
61611-4877,East Peoria,Tazewell,IL,US,US/Central
62010-2295,Bethalto,Madison,IL,US,US/Central
62017,Coffeen,Montgomery,IL,US,US/Central
62221-7401,Belleville,Saint Clair,IL,US,US/Central
62353,Mount Sterling,Brown,IL,US,US/Central
62557-1149,Pana,Christian,IL,US,US/Central
63042-2828,Hazelwood,St. Louis County,MO,US,US/Central
63121-4302,Saint Louis,Saint Louis,MO,US,US/Central
64014-2173,Blue Springs,Jackson,MO,US,US/Central
64701-4395,Harrisonville,Cass,MO,US,US/Central
65738-9482,Republic,Greene,MO,US,US/Central
65802-4842,Springfield,Greene,MO,US,US/Central
65810-3101,Springfield,Greene,MO,US,US/Central
68005-2330,Bellevue,Sarpy,NE,US,US/Central
68005-2834,Bellevue,Sarpy,NE,US,US/Central
68104-4047,Omaha,Douglas,NE,US,US/Central
68106-3146,Omaha,Douglas,NE,US,US/Central
68110-2048,Omaha,Douglas,NE,US,US/Central
68112-2628,Omaha,Douglas,NE,US,US/Central
68114-1825,Omaha,Douglas,NE,US,US/Central
68117-1207,Omaha,Douglas,NE,US,US/Central
68134-6601,Omaha,Douglas,NE,US,US/Central
68137-3625,Omaha,Douglas,NE,US,US/Central
68144-3356,Omaha,Douglas,NE,US,US/Central
69101-5313,North Platte,Lincoln,NE,US,US/Central
69130,Cozad,Dawson,NE,US,US/Central
70501-6124,Lafayette,Lafayette,LA,US,US/Central
70501-6425,Lafayette,Lafayette,LA,US,US/Central
70503-5245,Lafayette,Lafayette,LA,US,US/Central
70506-5434,Lafayette,Lafayette,LA,US,US/Central
70518-3409,Broussard,Lafayette,LA,US,US/Central
70518-4848,Broussard,Lafayette,LA,US,US/Central
70592-5752,Youngsville,Lafayette,LA,US,US/Central
70592-6336,Youngsville,Lafayette,LA,US,US/Central
70769-3304,Prairieville,Ascension,LA,US,US/Central
70791-2709,Zachary,East Baton Rouge,LA,US,US/Central
70791-4019,Zachary,East Baton Rouge,LA,US,US/Central
70802-5535,Baton Rouge,East Baton Rouge,LA,US,US/Central
70802-6346,Baton Rouge,East Baton Rouge,LA,US,US/Central
70806-7636,Baton Rouge,East Baton Rouge,LA,US,US/Central
70806-8019,Baton Rouge,East Baton Rouge,LA,US,US/Central
70807-5523,Baton Rouge,East Baton Rouge,LA,US,US/Central
70808-2610,Baton Rouge,East Baton Rouge,LA,US,US/Central
70809-1624,Baton Rouge,East Baton Rouge,LA,US,US/Central
70811-5949,Baton Rouge,East Baton Rouge,LA,US,US/Central
70814-7315,Baton Rouge,East Baton Rouge,LA,US,US/Central
70815-2841,Baton Rouge,East Baton Rouge,LA,US,US/Central
70820-3916,Baton Rouge,East Baton Rouge,LA,US,US/Central
70836-6402,Baton Rouge,East Baton Rouge,LA,US,US/Central
71061-8788,Oil City,Caddo,LA,US,US/Central
71118-2309,Shreveport,Caddo,LA,US,US/Central
71129-2615,Shreveport,Caddo,LA,US,US/Central
71129-4322,Shreveport,Caddo,LA,US,US/Central
71638-9599,Dermott,Chicot,AR,US,US/Central
72064,Hazen,Prairie,AR,US,US/Central
72366-8718,Marvell,Phillips,AR,US,US/Central
73013-1818,Edmond,Oklahoma,OK,US,US/Central
73020-8656,Choctaw,Oklahoma,OK,US,US/Central
73036,El Reno,Canadian,OK,US,US/Central
73086,Sulphur,Murray,OK,US,US/Central
73099-1109,Yukon,Canadian,OK,US,US/Central
73099-7666,Yukon,Canadian,OK,US,US/Central
73106-4443,Oklahoma City,Oklahoma,OK,US,US/Central
73106-6427,Oklahoma City,Oklahoma,OK,US,US/Central
73107-3139,Oklahoma City,Oklahoma,OK,US,US/Central
73108-6401,Oklahoma City,Oklahoma,OK,US,US/Central
73108-7811,Oklahoma City,Oklahoma,OK,US,US/Central
73109-2308,Oklahoma City,Oklahoma,OK,US,US/Central
73109-5104,Oklahoma City,Oklahoma,OK,US,US/Central
73111-5137,Oklahoma City,Oklahoma,OK,US,US/Central
73114-7514,Oklahoma City,Oklahoma,OK,US,US/Central
73120-8347,Oklahoma City,Oklahoma,OK,US,US/Central
73129-6063,Oklahoma City,Oklahoma,OK,US,US/Central
73129-9267,Oklahoma City,Oklahoma,OK,US,US/Central
73132-4407,Oklahoma City,Oklahoma,OK,US,US/Central
73139-1110,Oklahoma City,Oklahoma,OK,US,US/Central
73159-6315,Oklahoma City,Cleveland,OK,US,US/Central
73159-6480,Oklahoma City,Oklahoma,OK,US,US/Central
73162-4377,Oklahoma City,Oklahoma,OK,US,US/Central
73169-2201,Oklahoma City,Oklahoma,OK,US,US/Central
74105-4903,Tulsa,Tulsa,OK,US,US/Central
74106,Tulsa,Osage,OK,US,US/Central
74106-2406,Tulsa,Tulsa,OK,US,US/Central
74106-5034,Tulsa,Tulsa,OK,US,US/Central
74110-5356,Tulsa,Tulsa,OK,US,US/Central
74112-2230,Tulsa,Tulsa,OK,US,US/Central
74115-3634,Tulsa,Tulsa,OK,US,US/Central
74115-7444,Tulsa,Tulsa,OK,US,US/Central
74126-3109,Tulsa,Tulsa,OK,US,US/Central
74127-7812,Tulsa,Tulsa,OK,US,US/Central
74133-1509,Tulsa,Tulsa,OK,US,US/Central
74133-7118,Tulsa,Tulsa,OK,US,US/Central
74801-5717,Shawnee,Pottawatomie,OK,US,US/Central
75022-2799,Flower Mound,Denton,TX,US,US/Central
75043-6607,Garland,Dallas,TX,US,US/Central
75201-5604,Dallas,Dallas,TX,US,US/Central
75204-5020,Dallas,Dallas,TX,US,US/Central
75207-3004,Dallas,Dallas,TX,US,US/Central
75212-4421,Dallas,Dallas,TX,US,US/Central
75214-3640,Dallas,Dallas,TX,US,US/Central
75219-2411,Dallas,Dallas,TX,US,US/Central
75223-2058,Dallas,Dallas,TX,US,US/Central
75228-5026,Dallas,Dallas,TX,US,US/Central
75228-5852,Dallas,Dallas,TX,US,US/Central
75237-2908,Dallas,Dallas,TX,US,US/Central
75240-5812,Dallas,Dallas,TX,US,US/Central
75247-3704,Dallas,Dallas,TX,US,US/Central
75254-7505,Dallas,Dallas,TX,US,US/Central
75766,Jacksonville,Cherokee,TX,US,US/Central
76036-5541,Crowley,Tarrant,TX,US,US/Central
76310-3439,Wichita Falls,Wichita,TX,US,US/Central
76457-6950,Hico,Erath,TX,US,US/Central
77002-2701,Houston,Harris,TX,US,US/Central
77002-8506,Houston,Harris,TX,US,US/Central
77004-1844,Houston,Harris,TX,US,US/Central
77004-4253,Houston,Harris,TX,US,US/Central
77006-3728,Houston,Harris,TX,US,US/Central
77006-5442,Houston,Harris,TX,US,US/Central
77006-6516,Houston,Harris,TX,US,US/Central
77008-3740,Houston,Harris,TX,US,US/Central
77009-1703,Houston,Harris,TX,US,US/Central
77009-3318,Houston,Harris,TX,US,US/Central
77009-3617,Houston,Harris,TX,US,US/Central
77009-5609,Houston,Harris,TX,US,US/Central
77009-6930,Houston,Harris,TX,US,US/Central
77011-2818,Houston,Harris,TX,US,US/Central
77012-2647,Houston,Harris,TX,US,US/Central
77016-1752,Houston,Harris,TX,US,US/Central
77016-2722,Houston,Harris,TX,US,US/Central
77018-5732,Houston,Harris,TX,US,US/Central
77018-8337,Houston,Harris,TX,US,US/Central
77019-2004,Houston,Harris,TX,US,US/Central
77019-6703,Houston,Harris,TX,US,US/Central
77023-1124,Houston,Harris,TX,US,US/Central
77023-2308,Houston,Harris,TX,US,US/Central
77023-3408,Houston,Harris,TX,US,US/Central
77023-5717,Houston,Harris,TX,US,US/Central
