Zipcode,City,County,State,Country,Timezone
89101-6507,Las Vegas,Clark,NV,US,US/Pacific
89103-3500,Las Vegas,Clark,NV,US,US/Pacific
89106,Las Vegas,Clark,NV,US,US/Pacific
89119-7305,Las Vegas,Clark,NV,US,US/Pacific
89406-2738,Fallon,Churchill,NV,US,US/Pacific
89408-7672,Fernley,Lyon,NV,US,US/Pacific
89451-9445,Incline Village,Washoe,NV,US,US/Pacific
89501-1208,Reno,Washoe,NV,US,US/Pacific
89512-2788,Reno,Washoe,NV,US,US/Pacific
89706-7410,Mound House,Lyon,NV,US,US/Pacific
90001-1632,Los Angeles,Los Angeles,CA,US,US/Pacific
90002-1542,Los Angeles,Los Angeles,CA,US,US/Pacific
90003-1716,Los Angeles,Los Angeles,CA,US,US/Pacific
90016-3904,Los Angeles,Los Angeles,CA,US,US/Pacific
90022,Los Angeles,Los Angeles,CA,US,US/Pacific
90022-1852,Los Angeles,Los Angeles,CA,US,US/Pacific
90022-2132,Los Angeles,Los Angeles,CA,US,US/Pacific
90036-2628,Los Angeles,Los Angeles,CA,US,US/Pacific
90037-1334,Los Angeles,Los Angeles,CA,US,US/Pacific
90037-1918,Los Angeles,Los Angeles,CA,US,US/Pacific
90037-2709,Los Angeles,Los Angeles,CA,US,US/Pacific
90043-1738,View Park,Los Angeles,CA,US,US/Pacific
90044-1717,Los Angeles,Los Angeles,CA,US,US/Pacific
90044-1823,Los Angeles,Los Angeles,CA,US,US/Pacific
90044-2035,Los Angeles,Los Angeles,CA,US,US/Pacific
90049-1601,Los Angeles,Los Angeles,CA,US,US/Pacific
90056-1816,Windsor Hills,Los Angeles,CA,US,US/Pacific
90059-2354,Los Angeles,Los Angeles,CA,US,US/Pacific
90063-1715,Los Angeles,Los Angeles,CA,US,US/Pacific
90063-3741,Los Angeles,Los Angeles,CA,US,US/Pacific
90064-1706,Los Angeles,Los Angeles,CA,US,US/Pacific
90220-6411,Compton,Los Angeles,CA,US,US/Pacific
90221-4225,Compton,Los Angeles,CA,US,US/Pacific
90221-4240,Compton,Los Angeles,CA,US,US/Pacific
90247-2035,Gardena,Los Angeles,CA,US,US/Pacific
90248-1944,Gardena,Los Angeles,CA,US,US/Pacific
90248-1955,Gardena,Los Angeles,CA,US,US/Pacific
90248-3826,Gardena,Los Angeles,CA,US,US/Pacific
90250-2014,Hawthorne,Los Angeles,CA,US,US/Pacific
90265-2821,Malibu,Los Angeles,CA,US,US/Pacific
90265-4332,Malibu,Los Angeles,CA,US,US/Pacific
90266-5925,Manhattan Beach,Los Angeles,CA,US,US/Pacific
90302-3007,Inglewood,Los Angeles,CA,US,US/Pacific
90405-1053,Santa Monica,Los Angeles,CA,US,US/Pacific
90501-1203,Torrance,Los Angeles,CA,US,US/Pacific
90504-2205,Torrance,Los Angeles,CA,US,US/Pacific
90606-1725,Whittier,Los Angeles,CA,US,US/Pacific
90640-3901,Montebello,Los Angeles,CA,US,US/Pacific
90720-2335,Los Alamitos,Orange,CA,US,US/Pacific
90746-1561,Carson,Los Angeles,CA,US,US/Pacific
91103-2579,Pasadena,Los Angeles,CA,US,US/Pacific
91107-4502,Pasadena,Los Angeles,CA,US,US/Pacific
91302-3212,Calabasas,Los Angeles,CA,US,US/Pacific
91324-3520,Northridge,Los Angeles,CA,US,US/Pacific
91402-3911,Panorama City,Los Angeles,CA,US,US/Pacific
91436-3111,Encino,Los Angeles,CA,US,US/Pacific
91502-2210,Burbank,Los Angeles,CA,US,US/Pacific
91710-1615,Chino,San Bernardino,CA,US,US/Pacific
91722-2027,Covina,Los Angeles,CA,US,US/Pacific
91731-3127,El Monte,Los Angeles,CA,US,US/Pacific
91748-1932,Rowland Heights,Los Angeles,CA,US,US/Pacific
91748-3003,Rowland Heights,Los Angeles,CA,US,US/Pacific
91748-4113,Rowland Heights,Los Angeles,CA,US,US/Pacific
91789-3808,Walnut,Los Angeles,CA,US,US/Pacific
91910,Chula Vista,San Diego,CA,US,US/Pacific
92019-4336,El Cajon,San Diego,CA,US,US/Pacific
92020-8408,El Cajon,San Diego,CA,US,US/Pacific
92027,Escondido,San Diego,CA,US,US/Pacific
92102-1884,San Diego,San Diego,CA,US,US/Pacific
92118-1933,Coronado,San Diego,CA,US,US/Pacific
92126-2862,San Diego,San Diego,CA,US,US/Pacific
92314-9678,Big Bear City,San Bernardino,CA,US,US/Pacific
92332,Essex,San Bernardino,CA,US,US/Pacific
92371-6919,Phelan,San Bernardino,CA,US,US/Pacific
92407-0499,San Bernardino,San Bernardino,CA,US,US/Pacific
92407-6337,San Bernardino,San Bernardino,CA,US,US/Pacific
92626-4531,Costa Mesa,Orange,CA,US,US/Pacific
92655-1123,Midway City,Orange,CA,US,US/Pacific
92683-2907,Westminster,Orange,CA,US,US/Pacific
92705-8615,Santa Ana,Orange,CA,US,US/Pacific
92804-5343,Anaheim,Orange,CA,US,US/Pacific
92806-4656,Anaheim,Orange,CA,US,US/Pacific
92881-5652,Corona,Riverside,CA,US,US/Pacific
93023-9347,Ojai,Ventura,CA,US,US/Pacific
93023-9421,Ojai,Ventura,CA,US,US/Pacific
93023-9528,Ojai,Ventura,CA,US,US/Pacific
93063-4838,Simi Valley,Ventura,CA,US,US/Pacific
93111-1405,Santa Barbara,Santa Barbara,CA,US,US/Pacific
93230-9318,Hanford,Kings,CA,US,US/Pacific
93230-9464,Hanford,Kings,CA,US,US/Pacific
93256-9524,Pixley,Tulare,CA,US,US/Pacific
93286-9673,Woodlake,Tulare,CA,US,US/Pacific
93305-3019,Bakersfield,Kern,CA,US,US/Pacific
93311-9785,Bakersfield,Kern,CA,US,US/Pacific
93420-5732,Arroyo Grande,San Luis Obispo,CA,US,US/Pacific
93430-1235,Cayucos,San Luis Obispo,CA,US,US/Pacific
93444-8509,Nipomo,San Luis Obispo,CA,US,US/Pacific
93536-3561,Lancaster,Los Angeles,CA,US,US/Pacific
93543-1247,Littlerock,Los Angeles,CA,US,US/Pacific
93543-1434,Littlerock,Los Angeles,CA,US,US/Pacific
93545,Lone Pine,Inyo,CA,US,US/Pacific
93619-9677,Clovis,Fresno,CA,US,US/Pacific
93625-9769,Fowler,Fresno,CA,US,US/Pacific
93703-3118,Fresno,Fresno,CA,US,US/Pacific
93706-9012,Fresno,Fresno,CA,US,US/Pacific
93723-9312,Fresno,Fresno,CA,US,US/Pacific
93725-2010,Fresno,Fresno,CA,US,US/Pacific
93923-8369,Carmel,Monterey,CA,US,US/Pacific
93924,Carmel Valley,Monterey,CA,US,US/Pacific
94010-5847,Burlingame,San Mateo,CA,US,US/Pacific
94063-3267,Redwood City,San Mateo,CA,US,US/Pacific
94102,San Francisco,San Francisco,CA,US,US/Pacific
94103-4428,San Francisco,San Francisco,CA,US,US/Pacific
94108-3918,San Francisco,San Francisco,CA,US,US/Pacific
94110-4409,San Francisco,San Francisco,CA,US,US/Pacific
94132-2402,San Francisco,San Francisco,CA,US,US/Pacific
94403-4155,San Mateo,San Mateo,CA,US,US/Pacific
94513-4800,Brentwood,Contra Costa,CA,US,US/Pacific
94517-9745,Clayton,Contra Costa,CA,US,US/Pacific
94517-9759,Clayton,Contra Costa,CA,US,US/Pacific
94541-1438,Hayward,Alameda,CA,US,US/Pacific
94541-1455,Hayward,Alameda,CA,US,US/Pacific
94541-1604,Hayward,Alameda,CA,US,US/Pacific
94541-2504,Hayward,Alameda,CA,US,US/Pacific
94550-9762,Livermore,Alameda,CA,US,US/Pacific
94558-1315,Napa,Napa,CA,US,US/Pacific
94558-2760,Napa,Napa,CA,US,US/Pacific
94566-3116,Pleasanton,Alameda,CA,US,US/Pacific
94578-3910,San Leandro,Alameda,CA,US,US/Pacific
94595-1510,Walnut Creek,Contra Costa,CA,US,US/Pacific
94596-3801,Walnut Creek,Contra Costa,CA,US,US/Pacific
94603-1350,Oakland,Alameda,CA,US,US/Pacific
94710-1331,Berkeley,Alameda,CA,US,US/Pacific
94801-1648,Richmond,Contra Costa,CA,US,US/Pacific
94805-1311,Richmond,Contra Costa,CA,US,US/Pacific
94941-3553,Mill Valley,Marin,CA,US,US/Pacific
94941-4437,Mill Valley,Marin,CA,US,US/Pacific
94945-1407,Novato,Marin,CA,US,US/Pacific
94952-1708,Petaluma,Sonoma,CA,US,US/Pacific
94952-1717,Petaluma,Sonoma,CA,US,US/Pacific
94952-9508,Petaluma,Sonoma,CA,US,US/Pacific
95005-9439,Ben Lomond,Santa Cruz,CA,US,US/Pacific
95008-1104,Campbell,Santa Clara,CA,US,US/Pacific
95023-9456,Hollister,San Benito,CA,US,US/Pacific
95033-9124,Los Gatos,Santa Clara,CA,US,US/Pacific
95037-9415,Morgan Hill,Santa Clara,CA,US,US/Pacific
95060-9405,Santa Cruz,Santa Cruz,CA,US,US/Pacific
95076-2002,Watsonville,Santa Cruz,CA,US,US/Pacific
95110-2276,San Jose,Santa Clara,CA,US,US/Pacific
95116-2128,San Jose,Santa Clara,CA,US,US/Pacific
95128-2212,San Jose,Santa Clara,CA,US,US/Pacific
95134,San Jose,Santa Clara,CA,US,US/Pacific
95140-9742,Mount Hamilton,Santa Clara,CA,US,US/Pacific
95212-9456,Stockton,San Joaquin,CA,US,US/Pacific
95215-7304,Stockton,San Joaquin,CA,US,US/Pacific
95249-9520,San Andreas,Calaveras,CA,US,US/Pacific
95324-8331,Hilmar,Merced,CA,US,US/Pacific
95324-9421,Hilmar,Merced,CA,US,US/Pacific
95338-9518,Mariposa,Mariposa,CA,US,US/Pacific
95340-9128,Merced,Merced,CA,US,US/Pacific
95356-9220,Modesto,Stanislaus,CA,US,US/Pacific
95363-9634,Patterson,Stanislaus,CA,US,US/Pacific
95421-9706,Cazadero,Sonoma,CA,US,US/Pacific
95445-8591,Gualala,Mendocino,CA,US,US/Pacific
95472-2662,Sebastopol,Sonoma,CA,US,US/Pacific
95472-5149,Sebastopol,Sonoma,CA,US,US/Pacific
95519,McKinleyville,Humboldt,CA,US,US/Pacific
95521-9058,Arcata,Humboldt,CA,US,US/Pacific
95543-9614,Gasquet,Del Norte,CA,US,US/Pacific
95605-2118,West Sacramento,Yolo,CA,US,US/Pacific
95608-4423,Carmichael,Sacramento,CA,US,US/Pacific
95608-4794,Carmichael,Sacramento,CA,US,US/Pacific
95616-9438,Davis,Yolo,CA,US,US/Pacific
95642-2411,Jackson,Amador,CA,US,US/Pacific
95648-9509,Lincoln,Placer,CA,US,US/Pacific
95652-2612,Mcclellan,Sacramento,CA,US,US/Pacific
95660-2817,North Highlands,Sacramento,CA,US,US/Pacific
95661-2901,Roseville,Placer,CA,US,US/Pacific
95682-8798,Shingle Springs,El Dorado,CA,US,US/Pacific
95746-5902,Granite Bay,Placer,CA,US,US/Pacific
95776-9302,Woodland,Yolo,CA,US,US/Pacific
95823-3446,Sacramento,Sacramento,CA,US,US/Pacific
95828-3101,Sacramento,Sacramento,CA,US,US/Pacific
95828-4706,Sacramento,Sacramento,CA,US,US/Pacific
95829-6567,Sacramento,Sacramento,CA,US,US/Pacific
95833-9746,Sacramento,Sacramento,CA,US,US/Pacific
95959-9148,Nevada City,Nevada,CA,US,US/Pacific
95966-8707,Oroville,Butte,CA,US,US/Pacific
95971-9725,Quincy,Plumas,CA,US,US/Pacific
97007-5517,Beaverton,Washington,OR,US,US/Pacific
97026-7767,Gervais,Marion,OR,US,US/Pacific
97058-8630,The Dalles,Wasco,OR,US,US/Pacific
97128,McMinnville,Yamhill,OR,US,US/Pacific
97132-6860,Newberg,Yamhill,OR,US,US/Pacific
97138-4320,Seaside,Clatsop,OR,US,US/Pacific
97209-1002,Portland,Multnomah,OR,US,US/Pacific
97219-4563,Portland,Multnomah,OR,US,US/Pacific
97219-8438,Portland,Multnomah,OR,US,US/Pacific
97220-4457,Portland,Multnomah,OR,US,US/Pacific
97223-4837,Portland,Washington,OR,US,US/Pacific
97230-2606,Portland,Multnomah,OR,US,US/Pacific
97236-4530,Portland,Multnomah,OR,US,US/Pacific
97266-2936,Portland,Multnomah,OR,US,US/Pacific
97378-9001,Sheridan,Polk,OR,US,US/Pacific
97469,Riddle,Douglas,OR,US,US/Pacific
97488-9729,Vida,Lane,OR,US,US/Pacific
97501-6009,Medford,Jackson,OR,US,US/Pacific
97501-8807,Medford,Jackson,OR,US,US/Pacific
97524-7853,Eagle Point,Jackson,OR,US,US/Pacific
97530-9770,Jacksonville,Jackson,OR,US,US/Pacific
97601-9519,Klamath Falls,Klamath,OR,US,US/Pacific
97701-8059,Bend,Deschutes,OR,US,US/Pacific
98001-9733,Auburn,King,WA,US,US/Pacific
98003-3223,Federal Way,King,WA,US,US/Pacific
98012-6487,Bothell,Snohomish,WA,US,US/Pacific
98012-9613,Bothell,Snohomish,WA,US,US/Pacific
98020-5903,Edmonds,Snohomish,WA,US,US/Pacific
98021-9358,Bothell,Snohomish,WA,US,US/Pacific
98101-2025,Seattle,King,WA,US,US/Pacific
98101-3938,Seattle,King,WA,US,US/Pacific
98102-3915,Seattle,King,WA,US,US/Pacific
98103-3225,Seattle,King,WA,US,US/Pacific
98104-2146,Seattle,King,WA,US,US/Pacific
98104-2365,Seattle,King,WA,US,US/Pacific
98107-5217,Seattle,King,WA,US,US/Pacific
98109-2324,Seattle,King,WA,US,US/Pacific
98112-2618,Seattle,King,WA,US,US/Pacific
98115-4403,Seattle,King,WA,US,US/Pacific
98119-4101,Seattle,King,WA,US,US/Pacific
98122-3846,Seattle,King,WA,US,US/Pacific
98125-5218,Seattle,King,WA,US,US/Pacific
98125-7439,Seattle,King,WA,US,US/Pacific
98126-3331,Seattle,King,WA,US,US/Pacific
98136-1623,Seattle,King,WA,US,US/Pacific
98208-6001,Everett,Snohomish,WA,US,US/Pacific
98220-9611,Acme,Whatcom,WA,US,US/Pacific
98248-9325,Ferndale,Whatcom,WA,US,US/Pacific
98248-9550,Ferndale,Whatcom,WA,US,US/Pacific
98370-8649,Poulsbo,Kitsap,WA,US,US/Pacific
98391-8468,Bonney Lake,Pierce,WA,US,US/Pacific
98569-9419,Ocean Shores,Grays Harbor,WA,US,US/Pacific
99201-3607,Spokane,Spokane,WA,US,US/Pacific
99202-4411,Spokane,Spokane,WA,US,US/Pacific
89145-6241,Las Vegas,Clark,NV,US,US/Pacific
89427,Schurz,Mineral,NV,US,US/Pacific
89447-3352,Yerington,Lyon,NV,US,US/Pacific
90001-1411,Los Angeles,Los Angeles,CA,US,US/Pacific
90001-2454,Los Angeles,Los Angeles,CA,US,US/Pacific
90001-4055,Los Angeles,Los Angeles,CA,US,US/Pacific
90004-4805,Los Angeles,Los Angeles,CA,US,US/Pacific
90007-1121,Los Angeles,Los Angeles,CA,US,US/Pacific
90012-1413,Los Angeles,Los Angeles,CA,US,US/Pacific
90022-1514,Los Angeles,Los Angeles,CA,US,US/Pacific
90022-3014,Los Angeles,Los Angeles,CA,US,US/Pacific
90022-3313,Los Angeles,Los Angeles,CA,US,US/Pacific
90022-3315,Los Angeles,Los Angeles,CA,US,US/Pacific
90023-2446,Los Angeles,Los Angeles,CA,US,US/Pacific
90032-4113,Los Angeles,Los Angeles,CA,US,US/Pacific
90034-3604,Los Angeles,Los Angeles,CA,US,US/Pacific
90038-3338,Los Angeles,Los Angeles,CA,US,US/Pacific
90043-2227,Los Angeles,Los Angeles,CA,US,US/Pacific
90047-3971,Los Angeles,Los Angeles,CA,US,US/Pacific
90047-5176,Los Angeles,Los Angeles,CA,US,US/Pacific
90056-1140,Los Angeles,Los Angeles,CA,US,US/Pacific
90056-1267,Los Angeles,Los Angeles,CA,US,US/Pacific
90061-2327,Los Angeles,Los Angeles,CA,US,US/Pacific
90061-2747,Los Angeles,Los Angeles,CA,US,US/Pacific
90063-1241,Los Angeles,Los Angeles,CA,US,US/Pacific
90063-1310,Los Angeles,Los Angeles,CA,US,US/Pacific
90063-1926,Los Angeles,Los Angeles,CA,US,US/Pacific
90221-3680,Compton,Los Angeles,CA,US,US/Pacific
90222-3647,Compton,Los Angeles,CA,US,US/Pacific
90250-4172,Hawthorne,Los Angeles,CA,US,US/Pacific
90280-7406,South Gate,Los Angeles,CA,US,US/Pacific
90401-2735,Santa Monica,Los Angeles,CA,US,US/Pacific
90502-1011,Torrance,Los Angeles,CA,US,US/Pacific
90502-1413,Torrance,Los Angeles,CA,US,US/Pacific
90604-1150,Whittier,Los Angeles,CA,US,US/Pacific
90604-3003,Whittier,Los Angeles,CA,US,US/Pacific
90605-4135,Whittier,Los Angeles,CA,US,US/Pacific
90650-2181,Norwalk,Los Angeles,CA,US,US/Pacific
90742,Sunset Beach,Orange,CA,US,US/Pacific
90807,Long Beach,Los Angeles,CA,US,US/Pacific
91001-3111,Altadena,Los Angeles,CA,US,US/Pacific
91006-2722,Arcadia,Los Angeles,CA,US,US/Pacific
91103-3138,Pasadena,Los Angeles,CA,US,US/Pacific
91107-3927,Pasadena,Los Angeles,CA,US,US/Pacific
91203-1211,Glendale,Los Angeles,CA,US,US/Pacific
91302-2060,Calabasas,Los Angeles,CA,US,US/Pacific
91326,Porter Ranch,Los Angeles,CA,US,US/Pacific
91342-1019,Sylmar,Los Angeles,CA,US,US/Pacific
91342-1303,Sylmar,Los Angeles,CA,US,US/Pacific
91381-1706,Stevenson Ranch,Los Angeles,CA,US,US/Pacific
91390-4602,Santa Clarita,Los Angeles,CA,US,US/Pacific
91606-3409,North Hollywood,Los Angeles,CA,US,US/Pacific
91608-1007,Universal City,Los Angeles,CA,US,US/Pacific
91702-2806,Irwindale,Los Angeles,CA,US,US/Pacific
91702-4761,Azusa,Los Angeles,CA,US,US/Pacific
91710-3066,Chino,San Bernardino,CA,US,US/Pacific
91744-2202,La Puente,Los Angeles,CA,US,US/Pacific
91746-2200,La Puente,Los Angeles,CA,US,US/Pacific
91767,Pomona,Los Angeles,CA,US,US/Pacific
91768-1811,Pomona,Los Angeles,CA,US,US/Pacific
91770-2722,Rosemead,Los Angeles,CA,US,US/Pacific
91770-3950,Rosemead,Los Angeles,CA,US,US/Pacific
91776-3931,San Gabriel,Los Angeles,CA,US,US/Pacific
91977-1529,Spring Valley,San Diego,CA,US,US/Pacific
92019-3737,El Cajon,San Diego,CA,US,US/Pacific
92026-6403,Escondido,San Diego,CA,US,US/Pacific
92040-4326,Lakeside,San Diego,CA,US,US/Pacific
92082-6547,Valley Center,San Diego,CA,US,US/Pacific
92127-7604,San Diego,San Diego,CA,US,US/Pacific
92203-1418,Bermuda Dunes,Riverside,CA,US,US/Pacific
92284-5857,Yucca Valley,San Bernardino,CA,US,US/Pacific
92314-9412,Big Bear City,San Bernardino,CA,US,US/Pacific
92316-1707,Bloomington,San Bernardino,CA,US,US/Pacific
92363-2830,Needles,San Bernardino,CA,US,US/Pacific
92374,Redlands,San Bernardino,CA,US,US/Pacific
92392-6386,Victorville,San Bernardino,CA,US,US/Pacific
92506-2401,Riverside,Riverside,CA,US,US/Pacific
92509-4361,Riverside,Riverside,CA,US,US/Pacific
92536-9782,Aguanga,Riverside,CA,US,US/Pacific
92544-6289,Hemet,Riverside,CA,US,US/Pacific
92590-4130,Temecula,Riverside,CA,US,US/Pacific
92596-9343,Winchester,Riverside,CA,US,US/Pacific
92660-9001,Newport Beach,Orange,CA,US,US/Pacific
92675-2044,San Juan Capistrano,Orange,CA,US,US/Pacific
92705-1113,Santa Ana,Orange,CA,US,US/Pacific
92705-1824,Santa Ana,Orange,CA,US,US/Pacific
92705-2972,Santa Ana,Orange,CA,US,US/Pacific
92804-5618,Anaheim,Orange,CA,US,US/Pacific
92879-3129,Corona,Riverside,CA,US,US/Pacific
92881-4944,Corona,Riverside,CA,US,US/Pacific
92882-1834,Corona,Riverside,CA,US,US/Pacific
93001-1163,Ventura,Ventura,CA,US,US/Pacific
93022-9660,Oak View,Ventura,CA,US,US/Pacific
93036-1705,Oxnard,Ventura,CA,US,US/Pacific
93221-9602,Exeter,Tulare,CA,US,US/Pacific
93225,Frazier Park,Kern,CA,US,US/Pacific
93436-1208,Lompoc,Santa Barbara,CA,US,US/Pacific
93446-9636,Paso Robles,San Luis Obispo,CA,US,US/Pacific
93514-7633,Bishop,Inyo,CA,US,US/Pacific
93560-6186,Rosamond,Kern,CA,US,US/Pacific
93561,Tehachapi,Kern,CA,US,US/Pacific
93618-9588,Dinuba,Tulare,CA,US,US/Pacific
93620-9441,Dos Palos,Merced,CA,US,US/Pacific
93636,Madera,Madera,CA,US,US/Pacific
93647-9725,Orosi,Tulare,CA,US,US/Pacific
93647-9732,Orosi,Tulare,CA,US,US/Pacific
93648-9783,Parlier,Fresno,CA,US,US/Pacific
93923-9021,Carmel,Monterey,CA,US,US/Pacific
94015-1639,Daly City,San Mateo,CA,US,US/Pacific
94025-2559,Menlo Park,San Mateo,CA,US,US/Pacific
94129-1754,San Francisco,San Francisco,CA,US,US/Pacific
94303-1717,East Palo Alto,San Mateo,CA,US,US/Pacific
94401-1612,San Mateo,San Mateo,CA,US,US/Pacific
94404,San Mateo,San Mateo,CA,US,US/Pacific
94534-1436,Fairfield,Solano,CA,US,US/Pacific
94541-5635,Hayward,Alameda,CA,US,US/Pacific
94546-2232,Castro Valley,Alameda,CA,US,US/Pacific
94546-3223,Castro Valley,Alameda,CA,US,US/Pacific
94546-4652,Castro Valley,Alameda,CA,US,US/Pacific
94547-3622,Hercules,Contra Costa,CA,US,US/Pacific
94551-7576,Livermore,Alameda,CA,US,US/Pacific
94558-1102,Napa,Napa,CA,US,US/Pacific
94563-4241,Orinda,Contra Costa,CA,US,US/Pacific
94580-2905,San Lorenzo,Alameda,CA,US,US/Pacific
94592,Vallejo,Solano,CA,US,US/Pacific
94610,Oakland,Alameda,CA,US,US/Pacific
94705-2449,Berkeley,Alameda,CA,US,US/Pacific
94803-1110,El Sobrante,Contra Costa,CA,US,US/Pacific
95003-3815,Aptos,Santa Cruz,CA,US,US/Pacific
95023-3331,Hollister,San Benito,CA,US,US/Pacific
95050-5001,Santa Clara,Santa Clara,CA,US,US/Pacific
95076-0345,Watsonville,Santa Cruz,CA,US,US/Pacific
95076-0419,Watsonville,Santa Cruz,CA,US,US/Pacific
95076-6664,Watsonville,Santa Cruz,CA,US,US/Pacific
95112-3941,San Jose,Santa Clara,CA,US,US/Pacific
95112-5607,San Jose,Santa Clara,CA,US,US/Pacific
95131-3306,San Jose,Santa Clara,CA,US,US/Pacific
95138,San Jose,Santa Clara,CA,US,US/Pacific
95148-1205,San Jose,Santa Clara,CA,US,US/Pacific
95212,Stockton,San Joaquin,CA,US,US/Pacific
95212-1801,Stockton,San Joaquin,CA,US,US/Pacific
95215-5258,Stockton,San Joaquin,CA,US,US/Pacific
95236-9684,Linden,San Joaquin,CA,US,US/Pacific
95237-9632,Lockeford,San Joaquin,CA,US,US/Pacific
95245-9434,Mokelumne Hill,Calaveras,CA,US,US/Pacific
95245-9618,Mokelumne Hill,Calaveras,CA,US,US/Pacific
95246-9799,Mountain Ranch,Calaveras,CA,US,US/Pacific
95252-8479,Valley Springs,Calaveras,CA,US,US/Pacific
95252-9710,Valley Springs,Calaveras,CA,US,US/Pacific
95301-8589,Atwater,Merced,CA,US,US/Pacific
95326-9403,Hughson,Stanislaus,CA,US,US/Pacific
95336-9212,Manteca,San Joaquin,CA,US,US/Pacific
95351-3760,Modesto,Stanislaus,CA,US,US/Pacific
95357-1201,Modesto,Stanislaus,CA,US,US/Pacific
95357-1834,Modesto,Stanislaus,CA,US,US/Pacific
95370-2811,Sonora,Tuolumne,CA,US,US/Pacific
95386-9126,Waterford,Stanislaus,CA,US,US/Pacific
95472-5922,Sebastopol,Sonoma,CA,US,US/Pacific
95472-6034,Sebastopol,Sonoma,CA,US,US/Pacific
95476-4575,Sonoma,Sonoma,CA,US,US/Pacific
95482-6104,Ukiah,Mendocino,CA,US,US/Pacific
95482-7213,Ukiah,Mendocino,CA,US,US/Pacific
95490-9130,Willits,Mendocino,CA,US,US/Pacific
95525-9702,Blue Lake,Humboldt,CA,US,US/Pacific
95528-9607,Carlotta,Humboldt,CA,US,US/Pacific
95608-1917,Carmichael,Sacramento,CA,US,US/Pacific
95608-5104,Carmichael,Sacramento,CA,US,US/Pacific
95620-9633,Dixon,Solano,CA,US,US/Pacific
95632-8785,Galt,Sacramento,CA,US,US/Pacific
95641-9600,Isleton,Sacramento,CA,US,US/Pacific
95660-4106,North Highlands,Sacramento,CA,US,US/Pacific
95673-2122,Rio Linda,Sacramento,CA,US,US/Pacific
95684-9305,Somerset,El Dorado,CA,US,US/Pacific
95726-9575,Pollock Pines,El Dorado,CA,US,US/Pacific
95820-1322,Sacramento,Sacramento,CA,US,US/Pacific
95824-1518,Sacramento,Sacramento,CA,US,US/Pacific
95825-1005,Sacramento,Sacramento,CA,US,US/Pacific
95829-1142,Sacramento,Sacramento,CA,US,US/Pacific
95834-1206,Sacramento,Sacramento,CA,US,US/Pacific
95864-5802,Sacramento,Sacramento,CA,US,US/Pacific
95945-8017,Grass Valley,Nevada,CA,US,US/Pacific
95946-9563,Penn Valley,Nevada,CA,US,US/Pacific
95960-9519,North San Juan,Nevada,CA,US,US/Pacific
95965-9160,Oroville,Butte,CA,US,US/Pacific
95993-1314,Yuba City,Sutter,CA,US,US/Pacific
96001-9583,Redding,Shasta,CA,US,US/Pacific
96010,Big Bar,Trinity,CA,US,US/Pacific
97007-3809,Beaverton,Washington,OR,US,US/Pacific
97062-8564,Tualatin,Washington,OR,US,US/Pacific
97107-9627,Bay City,Tillamook,OR,US,US/Pacific
97113-8813,Cornelius,Washington,OR,US,US/Pacific
97114-8814,Dayton,Yamhill,OR,US,US/Pacific
97123-7970,Hillsboro,Washington,OR,US,US/Pacific
97123-9027,Hillsboro,Washington,OR,US,US/Pacific
97128-4522,Mcminnville,Yamhill,OR,US,US/Pacific
97137-9704,Saint Paul,Marion,OR,US,US/Pacific
97202-5608,Portland,Multnomah,OR,US,US/Pacific
97224-3709,Portland,Washington,OR,US,US/Pacific
97230-5716,Portland,Multnomah,OR,US,US/Pacific
97239,Portland,Multnomah,OR,US,US/Pacific
97267,Portland,Clackamas,OR,US,US/Pacific
97327-9736,Brownsville,Linn,OR,US,US/Pacific
97333-2412,Corvallis,Linn,OR,US,US/Pacific
97333-9470,Corvallis,Benton,OR,US,US/Pacific
97365-9575,Newport,Lincoln,OR,US,US/Pacific
97378-9533,Sheridan,Polk,OR,US,US/Pacific
97378-9625,Sheridan,Yamhill,OR,US,US/Pacific
97402-5367,Eugene,Lane,OR,US,US/Pacific
97413-9759,Blue River,Lane,OR,US,US/Pacific
97420-8448,Coos Bay,Coos,OR,US,US/Pacific
97467-1020,Reedsport,Douglas,OR,US,US/Pacific
97502-9351,Central Point,Jackson,OR,US,US/Pacific
97531-3612,Kerby,Josephine,OR,US,US/Pacific
97536-9724,Prospect,Jackson,OR,US,US/Pacific
97537-9608,Rogue River,Jackson,OR,US,US/Pacific
97539-8711,Shady Cove,Jackson,OR,US,US/Pacific
97640-8724,Summer Lake,Lake,OR,US,US/Pacific
97761,Warm Springs,Jefferson,OR,US,US/Pacific
97801-2141,Pendleton,Umatilla,OR,US,US/Pacific
98005-1640,Bellevue,King,WA,US,US/Pacific
98029-9182,Issaquah,King,WA,US,US/Pacific
98053-8455,Redmond,King,WA,US,US/Pacific
98102-3860,Seattle,King,WA,US,US/Pacific
98103-3721,Seattle,King,WA,US,US/Pacific
98103-5853,Seattle,King,WA,US,US/Pacific
98103-8152,Seattle,King,WA,US,US/Pacific
98106-1724,Seattle,King,WA,US,US/Pacific
98108-2933,Seattle,King,WA,US,US/Pacific
98108-3143,Seattle,King,WA,US,US/Pacific
98108-5219,Seattle,King,WA,US,US/Pacific
98109-4925,Seattle,King,WA,US,US/Pacific
98112-2253,Seattle,King,WA,US,US/Pacific
98112-3551,Seattle,King,WA,US,US/Pacific
98115-3314,Seattle,King,WA,US,US/Pacific
98116-2451,Seattle,King,WA,US,US/Pacific
98117-4133,Seattle,King,WA,US,US/Pacific
98117-5102,Seattle,King,WA,US,US/Pacific
98119-1322,Seattle,King,WA,US,US/Pacific
98121-1425,Seattle,King,WA,US,US/Pacific
98121-2308,Seattle,King,WA,US,US/Pacific
98125-7544,Seattle,King,WA,US,US/Pacific
98126-3044,Seattle,King,WA,US,US/Pacific
98136-1903,Seattle,King,WA,US,US/Pacific
98144-3947,Seattle,King,WA,US,US/Pacific
98204-3542,Everett,Snohomish,WA,US,US/Pacific
98204-5421,Everett,Snohomish,WA,US,US/Pacific
98233-8403,Burlington,Skagit,WA,US,US/Pacific
98290-5730,Snohomish,Snohomish,WA,US,US/Pacific
98329-8658,Gig Harbor,Pierce,WA,US,US/Pacific
98382-7427,Sequim,Clallam,WA,US,US/Pacific
98684-6946,Vancouver,Clark,WA,US,US/Pacific
99163-8878,Pullman,Whitman,WA,US,US/Pacific
99203-2624,Spokane,Spokane,WA,US,US/Pacific
99206-4802,Spokane Valley,Spokane,WA,US,US/Pacific
99207-5610,Spokane,Spokane,WA,US,US/Pacific
99208-2738,Spokane,Spokane,WA,US,US/Pacific
99208-4319,Spokane,Spokane,WA,US,US/Pacific
70002-1727,Metairie,Jefferson,LA,US,US/Pacific
70072-2762,Marrero,Jefferson,LA,US,US/Pacific
70118-2649,New Orleans,Orleans,LA,US,US/Pacific
70118-2672,New Orleans,Orleans,LA,US,US/Pacific
89081,North Las Vegas,Clark,NV,US,US/Pacific
89101-4307,Las Vegas,Clark,NV,US,US/Pacific
89113-2224,Las Vegas,Clark,NV,US,US/Pacific
89145-5602,Las Vegas,Clark,NV,US,US/Pacific
89523-8952,Reno,Washoe,NV,US,US/Pacific
89701-5305,Carson City,Carson City,NV,US,US/Pacific
90001-1447,Los Angeles,Los Angeles,CA,US,US/Pacific
90001-2515,Los Angeles,Los Angeles,CA,US,US/Pacific
90007-2111,Los Angeles,Los Angeles,CA,US,US/Pacific
90007-2501,Los Angeles,Los Angeles,CA,US,US/Pacific
90012-2013,Los Angeles,Los Angeles,CA,US,US/Pacific
90015-2762,Los Angeles,Los Angeles,CA,US,US/Pacific
90022-2963,Los Angeles,Los Angeles,CA,US,US/Pacific
90023-4029,Los Angeles,Los Angeles,CA,US,US/Pacific
90027-1473,Los Angeles,Los Angeles,CA,US,US/Pacific
90027-5413,Los Angeles,Los Angeles,CA,US,US/Pacific
90037-2128,Los Angeles,Los Angeles,CA,US,US/Pacific
90038-3726,Los Angeles,Los Angeles,CA,US,US/Pacific
90043-1005,View Park,Los Angeles,CA,US,US/Pacific
90044-1049,Los Angeles,Los Angeles,CA,US,US/Pacific
90044-1140,Los Angeles,Los Angeles,CA,US,US/Pacific
90044-1313,Los Angeles,Los Angeles,CA,US,US/Pacific
90044-4833,Los Angeles,Los Angeles,CA,US,US/Pacific
90044-5720,Los Angeles,Los Angeles,CA,US,US/Pacific
90045-6128,Los Angeles,Los Angeles,CA,US,US/Pacific
90047-4846,Los Angeles,Los Angeles,CA,US,US/Pacific
90061-1316,Los Angeles,Los Angeles,CA,US,US/Pacific
90061-2541,Los Angeles,Los Angeles,CA,US,US/Pacific
90061-2741,Los Angeles,Los Angeles,CA,US,US/Pacific
90062-1502,Los Angeles,Los Angeles,CA,US,US/Pacific
90220-6312,Compton,Los Angeles,CA,US,US/Pacific
90222-2202,Compton,Los Angeles,CA,US,US/Pacific
90265-5512,Malibu,Los Angeles,CA,US,US/Pacific
90280-5203,South Gate,Los Angeles,CA,US,US/Pacific
90304-2308,Inglewood,Los Angeles,CA,US,US/Pacific
90405-2414,Santa Monica,Los Angeles,CA,US,US/Pacific
90501-4645,Torrance,Los Angeles,CA,US,US/Pacific
90606-3121,Whittier,Los Angeles,CA,US,US/Pacific
91006-1919,Arcadia,Los Angeles,CA,US,US/Pacific
91040-1609,Sunland,Los Angeles,CA,US,US/Pacific
91201-1927,Glendale,Los Angeles,CA,US,US/Pacific
91203-1509,Glendale,Los Angeles,CA,US,US/Pacific
91214-3301,La Crescenta,Los Angeles,CA,US,US/Pacific
91335-3584,Reseda,Los Angeles,CA,US,US/Pacific
91384-3374,Castaic,Los Angeles,CA,US,US/Pacific
91601-2322,North Hollywood,Los Angeles,CA,US,US/Pacific
91601-3025,North Hollywood,Los Angeles,CA,US,US/Pacific
91702-2801,Irwindale,Los Angeles,CA,US,US/Pacific
91702-3911,Azusa,Los Angeles,CA,US,US/Pacific
91744-2229,La Puente,Los Angeles,CA,US,US/Pacific
91748-2762,Rowland Heights,Los Angeles,CA,US,US/Pacific
91764-3818,Ontario,San Bernardino,CA,US,US/Pacific
91775-1708,San Gabriel,Los Angeles,CA,US,US/Pacific
91901-3826,Alpine,San Diego,CA,US,US/Pacific
91917-1114,Dulzura,San Diego,CA,US,US/Pacific
91977-6030,Spring Valley,San Diego,CA,US,US/Pacific
91980,Tecate,San Diego,CA,US,US/Pacific
92021-4638,El Cajon,San Diego,CA,US,US/Pacific
92028-3202,Fallbrook,San Diego,CA,US,US/Pacific
92037-6105,La Jolla,San Diego,CA,US,US/Pacific
92061-9607,Pauma Valley,San Diego,CA,US,US/Pacific
92067-9509,Rancho Santa Fe,San Diego,CA,US,US/Pacific
92078-4734,San Marcos,San Diego,CA,US,US/Pacific
92081-8751,Vista,San Diego,CA,US,US/Pacific
92211-1256,Palm Desert,Riverside,CA,US,US/Pacific
92324-2239,Colton,San Bernardino,CA,US,US/Pacific
92335-3281,Fontana,San Bernardino,CA,US,US/Pacific
92344-4606,Hesperia,San Bernardino,CA,US,US/Pacific
92371-7952,Phelan,San Bernardino,CA,US,US/Pacific
92373-6013,Redlands,San Bernardino,CA,US,US/Pacific
92373-7838,Redlands,San Bernardino,CA,US,US/Pacific
92404-4409,San Bernardino,San Bernardino,CA,US,US/Pacific
92407-6007,San Bernardino,San Bernardino,CA,US,US/Pacific
92509-7500,Riverside,Riverside,CA,US,US/Pacific
92530-1472,Lake Elsinore,Riverside,CA,US,US/Pacific
92545-9402,Hemet,Riverside,CA,US,US/Pacific
92545-9690,Hemet,Riverside,CA,US,US/Pacific
92548-9207,Homeland,Riverside,CA,US,US/Pacific
92563-6409,Murrieta,Riverside,CA,US,US/Pacific
92570-6840,Perris,Riverside,CA,US,US/Pacific
92570-7516,Perris,Riverside,CA,US,US/Pacific
92570-9663,Perris,Riverside,CA,US,US/Pacific
92590-1866,Temecula,Riverside,CA,US,US/Pacific
92627-4634,Costa Mesa,Orange,CA,US,US/Pacific
92656-3034,Aliso Viejo,Orange,CA,US,US/Pacific
92692-5018,Mission Viejo,Orange,CA,US,US/Pacific
92865-3308,Orange,Orange,CA,US,US/Pacific
92868-4926,Orange,Orange,CA,US,US/Pacific
92879-2076,Corona,Riverside,CA,US,US/Pacific
92882-2859,Corona,Riverside,CA,US,US/Pacific
92883-4635,Corona,Riverside,CA,US,US/Pacific
93013,Carpinteria,Santa Barbara,CA,US,US/Pacific
93022-9731,Oak View,Ventura,CA,US,US/Pacific
93060-9683,Santa Paula,Ventura,CA,US,US/Pacific
93066-2104,Somis,Ventura,CA,US,US/Pacific
93110-1336,Santa Barbara,Santa Barbara,CA,US,US/Pacific
93250-9604,Mc Farland,Kern,CA,US,US/Pacific
93270-9776,Terra Bella,Tulare,CA,US,US/Pacific
93277-9442,Visalia,Tulare,CA,US,US/Pacific
93286-9766,Woodlake,Tulare,CA,US,US/Pacific
93305-3008,Bakersfield,Kern,CA,US,US/Pacific
93305-3033,Bakersfield,Kern,CA,US,US/Pacific
93308-4838,Bakersfield,Kern,CA,US,US/Pacific
93422-6503,Atascadero,San Luis Obispo,CA,US,US/Pacific
93450,San Ardo,Monterey,CA,US,US/Pacific
93551-7420,Leona Valley,Los Angeles,CA,US,US/Pacific
93609-9549,Caruthers,Fresno,CA,US,US/Pacific
93633,Kings Canyon National Pk,Fresno,CA,US,US/Pacific
93660,San Joaquin,Fresno,CA,US,US/Pacific
93706-1711,Fresno,Fresno,CA,US,US/Pacific
93927-4202,Greenfield,Monterey,CA,US,US/Pacific
93927-9605,Greenfield,Monterey,CA,US,US/Pacific
94060-9719,Pescadero,San Mateo,CA,US,US/Pacific
94062-3117,Emerald Hills,San Mateo,CA,US,US/Pacific
94062-3214,Redwood City,San Mateo,CA,US,US/Pacific
94080-1803,South San Francisco,San Mateo,CA,US,US/Pacific
94124-1132,San Francisco,San Francisco,CA,US,US/Pacific
94506-3115,Danville,Contra Costa,CA,US,US/Pacific
94513-4571,Brentwood,Contra Costa,CA,US,US/Pacific
94523-1203,Pleasant Hill,Contra Costa,CA,US,US/Pacific
94546-4151,Castro Valley,Alameda,CA,US,US/Pacific
94551-9705,Livermore,Alameda,CA,US,US/Pacific
94563-1604,Orinda,Contra Costa,CA,US,US/Pacific
94566-4729,Pleasanton,Alameda,CA,US,US/Pacific
94578-2027,San Leandro,Alameda,CA,US,US/Pacific
94578-3118,San Leandro,Alameda,CA,US,US/Pacific
94613,Oakland,Alameda,CA,US,US/Pacific
94707-1843,Berkeley,Alameda,CA,US,US/Pacific
94801-1645,Richmond,Contra Costa,CA,US,US/Pacific
94806-1018,San Pablo,Contra Costa,CA,US,US/Pacific
94903-1001,San Rafael,Marin,CA,US,US/Pacific
94903-4218,San Rafael,Marin,CA,US,US/Pacific
94951-9502,Penngrove,Sonoma,CA,US,US/Pacific
95012-2872,Castroville,Monterey,CA,US,US/Pacific
95014-3671,Cupertino,Santa Clara,CA,US,US/Pacific
95018-9756,Felton,Santa Cruz,CA,US,US/Pacific
95033-9133,Los Gatos,Santa Cruz,CA,US,US/Pacific
95045-9727,San Juan Bautista,San Benito,CA,US,US/Pacific
95060-9497,Santa Cruz,Santa Cruz,CA,US,US/Pacific
95062-2111,Santa Cruz,Santa Cruz,CA,US,US/Pacific
95076-2322,Watsonville,Santa Cruz,CA,US,US/Pacific
95076-9148,Royal Oaks,Santa Cruz,CA,US,US/Pacific
95076-9430,Watsonville,Santa Cruz,CA,US,US/Pacific
95112-2427,San Jose,Santa Clara,CA,US,US/Pacific
95120-3417,San Jose,Santa Clara,CA,US,US/Pacific
95122-2644,San Jose,Santa Clara,CA,US,US/Pacific
95128-2221,San Jose,Santa Clara,CA,US,US/Pacific
95205-2912,Stockton,San Joaquin,CA,US,US/Pacific
95242-9529,Lodi,San Joaquin,CA,US,US/Pacific
95252-8796,Valley Springs,Calaveras,CA,US,US/Pacific
95315-9526,Delhi,Merced,CA,US,US/Pacific
95324-9733,Hilmar,Merced,CA,US,US/Pacific
95329-9527,La Grange,Stanislaus,CA,US,US/Pacific
95356-9616,Modesto,Stanislaus,CA,US,US/Pacific
95366-9639,Ripon,San Joaquin,CA,US,US/Pacific
95366-9706,Ripon,San Joaquin,CA,US,US/Pacific
95407-7867,Santa Rosa,Sonoma,CA,US,US/Pacific
95407-8326,Santa Rosa,Sonoma,CA,US,US/Pacific
95446-8042,Guerneville,Sonoma,CA,US,US/Pacific
95465-9288,Occidental,Sonoma,CA,US,US/Pacific
95472-9272,Sebastopol,Sonoma,CA,US,US/Pacific
95476-9214,Sonoma,Sonoma,CA,US,US/Pacific
95608-2719,Carmichael,Sacramento,CA,US,US/Pacific
95614-9467,Cool,El Dorado,CA,US,US/Pacific
95628-6811,Fair Oaks,Sacramento,CA,US,US/Pacific
95628-7210,Fair Oaks,Sacramento,CA,US,US/Pacific
95641-9728,Isleton,Sacramento,CA,US,US/Pacific
95660-4842,North Highlands,Sacramento,CA,US,US/Pacific
95661-5204,Roseville,Placer,CA,US,US/Pacific
95662-3518,Orangevale,Sacramento,CA,US,US/Pacific
95667,Placerville,El Dorado,CA,US,US/Pacific
95667-5606,Placerville,El Dorado,CA,US,US/Pacific
95673-4206,Rio Linda,Sacramento,CA,US,US/Pacific
95673-5227,Rio Linda,Sacramento,CA,US,US/Pacific
95690-9770,Walnut Grove,Sacramento,CA,US,US/Pacific
95747-6589,Roseville,Placer,CA,US,US/Pacific
95762-6619,El Dorado Hills,El Dorado,CA,US,US/Pacific
95762-9727,El Dorado Hills,El Dorado,CA,US,US/Pacific
95816-7039,Sacramento,Sacramento,CA,US,US/Pacific
95820-6502,Sacramento,Sacramento,CA,US,US/Pacific
95821-3600,Sacramento,Sacramento,CA,US,US/Pacific
95821-4913,Sacramento,Sacramento,CA,US,US/Pacific
95821-5205,Sacramento,Sacramento,CA,US,US/Pacific
95824-2620,Sacramento,Sacramento,CA,US,US/Pacific
95827-2721,Sacramento,Sacramento,CA,US,US/Pacific
95829-1202,Sacramento,Sacramento,CA,US,US/Pacific
95834,Sacramento,Sacramento,CA,US,US/Pacific
95835-1649,Sacramento,Sacramento,CA,US,US/Pacific
95864-2977,Sacramento,Sacramento,CA,US,US/Pacific
95864-7206,Sacramento,Sacramento,CA,US,US/Pacific
95945-8637,Grass Valley,Nevada,CA,US,US/Pacific
95945-8831,Grass Valley,Nevada,CA,US,US/Pacific
95949-6874,Grass Valley,Nevada,CA,US,US/Pacific
95959-8972,Nevada City,Nevada,CA,US,US/Pacific
95987-5137,Williams,Colusa,CA,US,US/Pacific
95993-9616,Yuba City,Sutter,CA,US,US/Pacific
96006,Adin,Modoc,CA,US,US/Pacific
96080-8976,Red Bluff,Tehama,CA,US,US/Pacific
96080-9755,Red Bluff,Tehama,CA,US,US/Pacific
97028,Government Camp,Clackamas,OR,US,US/Pacific
97030-8057,Gresham,Multnomah,OR,US,US/Pacific
97049-9790,Rhododendron,Clackamas,OR,US,US/Pacific
97065-3036,Wasco,Sherman,OR,US,US/Pacific
97086-3728,Happy Valley,Clackamas,OR,US,US/Pacific
97103-2118,Astoria,Clatsop,OR,US,US/Pacific
97128-9329,Mcminnville,Yamhill,OR,US,US/Pacific
97202-7239,Portland,Multnomah,OR,US,US/Pacific
97213-5035,Portland,Multnomah,OR,US,US/Pacific
97216-2421,Portland,Multnomah,OR,US,US/Pacific
97217-6433,Portland,Multnomah,OR,US,US/Pacific
97223-1713,Portland,Washington,OR,US,US/Pacific
97229-3895,Portland,Multnomah,OR,US,US/Pacific
97230-1927,Portland,Multnomah,OR,US,US/Pacific
97239-4319,Portland,Multnomah,OR,US,US/Pacific
97305-9603,Salem,Marion,OR,US,US/Pacific
97321-1416,Albany,Benton,OR,US,US/Pacific
97355-9660,Lebanon,Linn,OR,US,US/Pacific
97378-9769,Sheridan,Yamhill,OR,US,US/Pacific
97390,Tidewater,Lincoln,OR,US,US/Pacific
97405-1355,Eugene,Lane,OR,US,US/Pacific
97477-1718,Springfield,Lane,OR,US,US/Pacific
97478-6920,Springfield,Lane,OR,US,US/Pacific
97492-9722,Westfir,Lane,OR,US,US/Pacific
97501-2924,Medford,Jackson,OR,US,US/Pacific
97536,Prospect,Jackson,OR,US,US/Pacific
97603-9202,Klamath Falls,Klamath,OR,US,US/Pacific
97636-9730,Paisley,Lake,OR,US,US/Pacific
97701-4236,Bend,Deschutes,OR,US,US/Pacific
97753-1552,Powell Butte,Crook,OR,US,US/Pacific
97754-8636,Prineville,Crook,OR,US,US/Pacific
97845-5615,John Day,Grant,OR,US,US/Pacific
98024-7811,Fall City,King,WA,US,US/Pacific
98101-1113,Seattle,King,WA,US,US/Pacific
98101-2923,Seattle,King,WA,US,US/Pacific
98104-2802,Seattle,King,WA,US,US/Pacific
98105-3143,Seattle,King,WA,US,US/Pacific
98107-3415,Seattle,King,WA,US,US/Pacific
98107-4537,Seattle,King,WA,US,US/Pacific
98107-5026,Seattle,King,WA,US,US/Pacific
98109-3539,Seattle,King,WA,US,US/Pacific
98116-2328,Seattle,King,WA,US,US/Pacific
98117-5541,Seattle,King,WA,US,US/Pacific
98118-1445,Seattle,King,WA,US,US/Pacific
98119-3910,Seattle,King,WA,US,US/Pacific
98121-1604,Seattle,King,WA,US,US/Pacific
98122-4752,Seattle,King,WA,US,US/Pacific
98125-5842,Seattle,King,WA,US,US/Pacific
98133-6624,Seattle,King,WA,US,US/Pacific
98134-2140,Seattle,King,WA,US,US/Pacific
98208-5071,Everett,Snohomish,WA,US,US/Pacific
98221-1957,Anacortes,Skagit,WA,US,US/Pacific
98223-8276,Arlington,Snohomish,WA,US,US/Pacific
98247-9245,Everson,Whatcom,WA,US,US/Pacific
98312-3534,Bremerton,Kitsap,WA,US,US/Pacific
98335-1708,Gig Harbor,Pierce,WA,US,US/Pacific
98382-9085,Sequim,Clallam,WA,US,US/Pacific
98406-5313,Tacoma,Pierce,WA,US,US/Pacific
98632-1538,Longview,Cowlitz,WA,US,US/Pacific
98632-3504,Longview,Cowlitz,WA,US,US/Pacific
98674-9213,Woodland,Cowlitz,WA,US,US/Pacific
98903-2233,Yakima,Yakima,WA,US,US/Pacific
99036-9726,Valleyford,Spokane,WA,US,US/Pacific
99170,Rosalia,Spokane,WA,US,US/Pacific
99205-1160,Spokane,Spokane,WA,US,US/Pacific
99206-5756,Spokane Valley,Spokane,WA,US,US/Pacific
99207-1703,Spokane,Spokane,WA,US,US/Pacific
99217-6211,Spokane,Spokane,WA,US,US/Pacific
90002-1148,Los Angeles,Los Angeles,CA,US,US/Pacific
90003-4572,Los Angeles,Los Angeles,CA,US,US/Pacific
90004-3703,Los Angeles,Los Angeles,CA,US,US/Pacific
90022-2411,Los Angeles,Los Angeles,CA,US,US/Pacific
90022-3506,Los Angeles,Los Angeles,CA,US,US/Pacific
90025-5335,Los Angeles,Los Angeles,CA,US,US/Pacific
90026-2317,Los Angeles,Los Angeles,CA,US,US/Pacific
90044-1513,Los Angeles,Los Angeles,CA,US,US/Pacific
90047-4939,Los Angeles,Los Angeles,CA,US,US/Pacific
90056-1445,Los Angeles,Los Angeles,CA,US,US/Pacific
90059-1430,Los Angeles,Los Angeles,CA,US,US/Pacific
90059-2230,Los Angeles,Los Angeles,CA,US,US/Pacific
90059-2524,Los Angeles,Los Angeles,CA,US,US/Pacific
90061-1426,Los Angeles,Los Angeles,CA,US,US/Pacific
90061-1517,Los Angeles,Los Angeles,CA,US,US/Pacific
90064-3828,Los Angeles,Los Angeles,CA,US,US/Pacific
90064-3914,Los Angeles,Los Angeles,CA,US,US/Pacific
90068-3805,Los Angeles,Los Angeles,CA,US,US/Pacific
90210-2216,Beverly Hills,Los Angeles,CA,US,US/Pacific
90220-5614,Compton,Los Angeles,CA,US,US/Pacific
90220-6118,Compton,Los Angeles,CA,US,US/Pacific
90221-4440,Compton,Los Angeles,CA,US,US/Pacific
90221-5311,Compton,Los Angeles,CA,US,US/Pacific
90222-1317,Compton,Los Angeles,CA,US,US/Pacific
90265-3252,Malibu,Los Angeles,CA,US,US/Pacific
90265-5034,Malibu,Los Angeles,CA,US,US/Pacific
90290-3139,Topanga,Los Angeles,CA,US,US/Pacific
90290-3281,Topanga,Los Angeles,CA,US,US/Pacific
90304-1718,Inglewood,Los Angeles,CA,US,US/Pacific
90304-2814,Inglewood,Los Angeles,CA,US,US/Pacific
90404-2906,Santa Monica,Los Angeles,CA,US,US/Pacific
90405-6022,Santa Monica,Los Angeles,CA,US,US/Pacific
90502-1553,Torrance,Los Angeles,CA,US,US/Pacific
90504-1121,Torrance,Los Angeles,CA,US,US/Pacific
90601-1457,Whittier,Los Angeles,CA,US,US/Pacific
90604-3245,Whittier,Los Angeles,CA,US,US/Pacific
90720-3906,Los Alamitos,Orange,CA,US,US/Pacific
90744-1354,Wilmington,Los Angeles,CA,US,US/Pacific
90802-3144,Long Beach,Los Angeles,CA,US,US/Pacific
91006-2751,Arcadia,Los Angeles,CA,US,US/Pacific
91104-1536,Pasadena,Los Angeles,CA,US,US/Pacific
91203-3173,Glendale,Los Angeles,CA,US,US/Pacific
91301-3118,Agoura Hills,Los Angeles,CA,US,US/Pacific
91352-2928,Sun Valley,Los Angeles,CA,US,US/Pacific
91387-3239,Canyon Country,Los Angeles,CA,US,US/Pacific
91390-4915,Santa Clarita,Los Angeles,CA,US,US/Pacific
91403-3617,Sherman Oaks,Los Angeles,CA,US,US/Pacific
91502-1311,Burbank,Los Angeles,CA,US,US/Pacific
91504-3884,Burbank,Los Angeles,CA,US,US/Pacific
91602-2719,North Hollywood,Los Angeles,CA,US,US/Pacific
91606-2810,North Hollywood,Los Angeles,CA,US,US/Pacific
91706-5803,Baldwin Park,Los Angeles,CA,US,US/Pacific
91706-5834,Baldwin Park,Los Angeles,CA,US,US/Pacific
91724-1035,Covina,Los Angeles,CA,US,US/Pacific
91724-1347,Covina,Los Angeles,CA,US,US/Pacific
91733-1705,El Monte,Los Angeles,CA,US,US/Pacific
91744-5323,La Puente,Los Angeles,CA,US,US/Pacific
91745-2233,Hacienda Heights,Los Angeles,CA,US,US/Pacific
91745-5203,Hacienda Heights,Los Angeles,CA,US,US/Pacific
91746-2919,La Puente,Los Angeles,CA,US,US/Pacific
91748-1376,Rowland Heights,Los Angeles,CA,US,US/Pacific
91764-5397,Ontario,San Bernardino,CA,US,US/Pacific
91780,Temple City,Los Angeles,CA,US,US/Pacific
91935-1812,Jamul,San Diego,CA,US,US/Pacific
91977-1235,Spring Valley,San Diego,CA,US,US/Pacific
91977-2928,Spring Valley,San Diego,CA,US,US/Pacific
91978-1044,Spring Valley,San Diego,CA,US,US/Pacific
92028-9558,Fallbrook,San Diego,CA,US,US/Pacific
92065-3923,Ramona,San Diego,CA,US,US/Pacific
92082-4528,Valley Center,San Diego,CA,US,US/Pacific
92082-5425,Valley Center,San Diego,CA,US,US/Pacific
92084-7725,Vista,San Diego,CA,US,US/Pacific
92101-1813,San Diego,San Diego,CA,US,US/Pacific
92110-1802,San Diego,San Diego,CA,US,US/Pacific
92173,San Ysidro,San Diego,CA,US,US/Pacific
92256-9646,Morongo Valley,San Bernardino,CA,US,US/Pacific
92311-6609,Barstow,San Bernardino,CA,US,US/Pacific
92335-0204,Fontana,San Bernardino,CA,US,US/Pacific
92335-8000,Fontana,San Bernardino,CA,US,US/Pacific
92358-9762,Lytle Creek,San Bernardino,CA,US,US/Pacific
92359-1320,Mentone,San Bernardino,CA,US,US/Pacific
92407-6116,San Bernardino,San Bernardino,CA,US,US/Pacific
92544-2779,Hemet,Riverside,CA,US,US/Pacific
92548-9694,Homeland,Riverside,CA,US,US/Pacific
92562-9702,Murrieta,Riverside,CA,US,US/Pacific
92570-7013,Perris,Riverside,CA,US,US/Pacific
92570-8049,Perris,Riverside,CA,US,US/Pacific
92596-9421,Winchester,Riverside,CA,US,US/Pacific
92596-9751,Winchester,Riverside,CA,US,US/Pacific
92620-0210,Irvine,Orange,CA,US,US/Pacific
92627-2250,Costa Mesa,Orange,CA,US,US/Pacific
92804-5908,Anaheim,Orange,CA,US,US/Pacific
92868-2707,Orange,Orange,CA,US,US/Pacific
92881-2067,Corona,Riverside,CA,US,US/Pacific
93101-3713,Santa Barbara,Santa Barbara,CA,US,US/Pacific
93108-2618,Santa Barbara,Santa Barbara,CA,US,US/Pacific
93203-9684,Tejon Ranch,Kern,CA,US,US/Pacific
93250-9690,Mc Farland,Kern,CA,US,US/Pacific
93274-9731,Tulare,Tulare,CA,US,US/Pacific
93274-9785,Tulare,Tulare,CA,US,US/Pacific
93277-9421,Visalia,Tulare,CA,US,US/Pacific
93291-8936,Visalia,Tulare,CA,US,US/Pacific
93305-5507,Bakersfield,Kern,CA,US,US/Pacific
93307-5028,Bakersfield,Kern,CA,US,US/Pacific
93307-8435,Bakersfield,Kern,CA,US,US/Pacific
93465-8583,Templeton,San Luis Obispo,CA,US,US/Pacific
93619-9091,Clovis,Fresno,CA,US,US/Pacific
93635-9752,Los Banos,Merced,CA,US,US/Pacific
93656-9770,Riverdale,Fresno,CA,US,US/Pacific
93706-9512,Fresno,Fresno,CA,US,US/Pacific
93722-5915,Fresno,Fresno,CA,US,US/Pacific
93725-1018,Fresno,Fresno,CA,US,US/Pacific
93907-8420,Salinas,Monterey,CA,US,US/Pacific
93924-9478,Carmel Valley,Monterey,CA,US,US/Pacific
94015,Daly City,San Mateo,CA,US,US/Pacific
94015-4708,Daly City,San Mateo,CA,US,US/Pacific
94025-7018,Menlo Park,San Mateo,CA,US,US/Pacific
94038-9624,Moss Beach,San Mateo,CA,US,US/Pacific
94303-2040,East Palo Alto,San Mateo,CA,US,US/Pacific
94541-1834,Hayward,Alameda,CA,US,US/Pacific
94541-2424,Hayward,Alameda,CA,US,US/Pacific
94546-3321,Castro Valley,Alameda,CA,US,US/Pacific
94546-7112,Castro Valley,Alameda,CA,US,US/Pacific
94568,Dublin,Alameda,CA,US,US/Pacific
94568-3101,Dublin,Alameda,CA,US,US/Pacific
94574-9603,Saint Helena,Napa,CA,US,US/Pacific
94803-2823,El Sobrante,Contra Costa,CA,US,US/Pacific
94806-5000,San Pablo,Contra Costa,CA,US,US/Pacific
95005-9705,Ben Lomond,Santa Cruz,CA,US,US/Pacific
95076-8614,Watsonville,Santa Cruz,CA,US,US/Pacific
95112-3915,San Jose,Santa Clara,CA,US,US/Pacific
95148-4203,San Jose,Santa Clara,CA,US,US/Pacific
95206-2427,Stockton,San Joaquin,CA,US,US/Pacific
95206-3746,Stockton,San Joaquin,CA,US,US/Pacific
95212-1611,Stockton,San Joaquin,CA,US,US/Pacific
95215-5309,Stockton,San Joaquin,CA,US,US/Pacific
95215-8321,Stockton,San Joaquin,CA,US,US/Pacific
95223-9997,Arnold,Alpine,CA,US,US/Pacific
95240-7109,Lodi,San Joaquin,CA,US,US/Pacific
95242-9758,Lodi,San Joaquin,CA,US,US/Pacific
95257-9740,Wilseyville,Calaveras,CA,US,US/Pacific
95317-9709,El Nido,Merced,CA,US,US/Pacific
95320-9427,Escalon,San Joaquin,CA,US,US/Pacific
95320-9554,Escalon,San Joaquin,CA,US,US/Pacific
95320-9771,Escalon,San Joaquin,CA,US,US/Pacific
95327-9607,Jamestown,Tuolumne,CA,US,US/Pacific
95327-9729,Jamestown,Tuolumne,CA,US,US/Pacific
95338-8716,Mariposa,Mariposa,CA,US,US/Pacific
95358-9752,Modesto,Stanislaus,CA,US,US/Pacific
95386-9751,Waterford,Stanislaus,CA,US,US/Pacific
95401-5553,Santa Rosa,Sonoma,CA,US,US/Pacific
95437-8546,Fort Bragg,Mendocino,CA,US,US/Pacific
95442-8799,Glen Ellen,Sonoma,CA,US,US/Pacific
95450,Jenner,Sonoma,CA,US,US/Pacific
95476-3344,Sonoma,Sonoma,CA,US,US/Pacific
95519-4120,Mckinleyville,Humboldt,CA,US,US/Pacific
95528-9705,Carlotta,Humboldt,CA,US,US/Pacific
95602-8972,Auburn,Nevada,CA,US,US/Pacific
95623-4501,El Dorado,El Dorado,CA,US,US/Pacific
95659,Nicolaus,Sutter,CA,US,US/Pacific
95660-4902,North Highlands,Sacramento,CA,US,US/Pacific
95662,Orangevale,Sacramento,CA,US,US/Pacific
95662-3245,Orangevale,Sacramento,CA,US,US/Pacific
95666-9383,Pioneer,Amador,CA,US,US/Pacific
95667-5720,Placerville,El Dorado,CA,US,US/Pacific
95667-7304,Placerville,El Dorado,CA,US,US/Pacific
95667-8512,Placerville,El Dorado,CA,US,US/Pacific
95667-9089,Placerville,El Dorado,CA,US,US/Pacific
95673-3325,Rio Linda,Sacramento,CA,US,US/Pacific
95693-9513,Wilton,Sacramento,CA,US,US/Pacific
95722-9381,Meadow Vista,Placer,CA,US,US/Pacific
95776-9116,Woodland,Yolo,CA,US,US/Pacific
95818-2038,Sacramento,Sacramento,CA,US,US/Pacific
95821-2323,Sacramento,Sacramento,CA,US,US/Pacific
95821-6229,Sacramento,Sacramento,CA,US,US/Pacific
95825-4702,Sacramento,Sacramento,CA,US,US/Pacific
95834-9619,Sacramento,Sacramento,CA,US,US/Pacific
95843-4054,Antelope,Sacramento,CA,US,US/Pacific
95945-9648,Grass Valley,Nevada,CA,US,US/Pacific
95948,Gridley,Butte,CA,US,US/Pacific
95954-9028,Magalia,Butte,CA,US,US/Pacific
95961-9671,Olivehurst,Yuba,CA,US,US/Pacific
96001-9642,Redding,Shasta,CA,US,US/Pacific
96003-4201,Redding,Shasta,CA,US,US/Pacific
96118,Loyalton,Sierra,CA,US,US/Pacific
97009-8142,Boring,Clackamas,OR,US,US/Pacific
97089-7811,Damascus,Clackamas,OR,US,US/Pacific
97118-1422,Garibaldi,Tillamook,OR,US,US/Pacific
97128-8634,Mcminnville,Yamhill,OR,US,US/Pacific
97138-7509,Seaside,Clatsop,OR,US,US/Pacific
97201-2463,Portland,Multnomah,OR,US,US/Pacific
97206-3409,Portland,Multnomah,OR,US,US/Pacific
97220-3341,Portland,Multnomah,OR,US,US/Pacific
97220-3361,Portland,Multnomah,OR,US,US/Pacific
97220-3455,Portland,Multnomah,OR,US,US/Pacific
97220-5702,Portland,Multnomah,OR,US,US/Pacific
97233-2146,Portland,Multnomah,OR,US,US/Pacific
97236-3253,Portland,Multnomah,OR,US,US/Pacific
97266-1855,Portland,Multnomah,OR,US,US/Pacific
97333-1050,Corvallis,Benton,OR,US,US/Pacific
97333-2229,Corvallis,Linn,OR,US,US/Pacific
97358-2167,Lyons,Marion,OR,US,US/Pacific
97403-3250,Eugene,Lane,OR,US,US/Pacific
97446-9530,Harrisburg,Linn,OR,US,US/Pacific
97473-9707,Scottsburg,Douglas,OR,US,US/Pacific
97478-6703,Springfield,Lane,OR,US,US/Pacific
97502-7317,Central Point,Jackson,OR,US,US/Pacific
97524-5579,Eagle Point,Jackson,OR,US,US/Pacific
97524-7851,Eagle Point,Jackson,OR,US,US/Pacific
97603-9616,Klamath Falls,Klamath,OR,US,US/Pacific
97624-9617,Chiloquin,Klamath,OR,US,US/Pacific
97630-9265,Lakeview,Lake,OR,US,US/Pacific
97636-9723,Paisley,Lake,OR,US,US/Pacific
97739-9706,La Pine,Deschutes,OR,US,US/Pacific
97850,La Grande,Union,OR,US,US/Pacific
97875-5000,Stanfield,Umatilla,OR,US,US/Pacific
98011-1575,Bothell,King,WA,US,US/Pacific
98012-6827,Bothell,Snohomish,WA,US,US/Pacific
98022-8372,Enumclaw,King,WA,US,US/Pacific
98027-8535,Issaquah,King,WA,US,US/Pacific
98033-7525,Kirkland,King,WA,US,US/Pacific
98036-6104,Lynnwood,Snohomish,WA,US,US/Pacific
98043-2120,Mountlake Terrace,Snohomish,WA,US,US/Pacific
98103-6931,Seattle,King,WA,US,US/Pacific
98103-7802,Seattle,King,WA,US,US/Pacific
98109-3350,Seattle,King,WA,US,US/Pacific
98109-5533,Seattle,King,WA,US,US/Pacific
98112-3828,Seattle,King,WA,US,US/Pacific
